{"type":"FeatureCollection","features":[{"type":"Feature","properties":{"d":"Anugul"},"geometry":{"type":"MultiPolygon","coordinates":[[[[85.246,21.678],[85.266,21.623],[85.294,21.598],[85.283,21.596],[85.286,21.584],[85.303,21.567],[85.313,21.568],[85.299,21.547],[85.301,21.531],[85.321,21.534],[85.332,21.482],[85.304,21.448],[85.263,21.458],[85.256,21.451],[85.272,21.429],[85.307,21.413],[85.305,21.397],[85.326,21.391],[85.343,21.366],[85.324,21.32],[85.315,21.33],[85.297,21.318],[85.297,21.308],[85.272,21.302],[85.27,21.275],[85.287,21.264],[85.297,21.276],[85.356,21.248],[85.375,21.229],[85.38,21.199],[85.393,21.184],[85.381,21.168],[85.347,21.169],[85.333,21.179],[85.316,21.159],[85.293,21.181],[85.272,21.176],[85.23,21.072],[85.186,21.083],[85.167,21.063],[85.169,21.047],[85.243,21.006],[85.26,20.979],[85.24,20.961],[85.246,20.934],[85.239,20.909],[85.258,20.894],[85.247,20.884],[85.257,20.876],[85.255,20.796],[85.195,20.786],[85.205,20.758],[85.216,20.751],[85.189,20.703],[85.193,20.679],[85.168,20.663],[85.165,20.684],[85.175,20.704],[85.16,20.708],[85.153,20.733],[85.139,20.731],[85.113,20.683],[85.135,20.644],[85.127,20.616],[85.117,20.61],[85.091,20.619],[85.074,20.581],[85.055,20.578],[85.027,20.59],[84.987,20.58],[84.98,20.565],[84.938,20.584],[84.895,20.583],[84.889,20.566],[84.848,20.528],[84.762,20.608],[84.636,20.624],[84.561,20.689],[84.516,20.702],[84.469,20.733],[84.419,20.739],[84.363,20.764],[84.35,20.78],[84.358,20.794],[84.349,20.834],[84.264,20.882],[84.268,20.914],[84.297,20.935],[84.311,20.932],[84.328,20.952],[84.353,20.952],[84.357,20.96],[84.368,20.952],[84.405,20.976],[84.413,21.002],[84.434,21.015],[84.408,21.03],[84.43,21.039],[84.439,21.033],[84.481,21.081],[84.532,21.087],[84.551,21.069],[84.584,21.061],[84.625,21.083],[84.644,21.083],[84.68,21.06],[84.667,21.102],[84.68,21.147],[84.724,21.147],[84.732,21.169],[84.794,21.132],[84.814,21.146],[84.798,21.165],[84.818,21.172],[84.877,21.164],[84.92,21.141],[84.933,21.154],[84.927,21.181],[84.951,21.17],[84.949,21.149],[84.962,21.148],[84.97,21.189],[84.939,21.196],[84.927,21.234],[84.897,21.26],[84.957,21.297],[84.99,21.288],[85.012,21.298],[85.034,21.293],[85.01,21.322],[85.007,21.385],[84.991,21.41],[84.999,21.439],[85.026,21.448],[85.02,21.458],[85.06,21.442],[85.078,21.458],[85.119,21.454],[85.158,21.462],[85.203,21.522],[85.213,21.555],[85.191,21.588],[85.144,21.595],[85.164,21.624],[85.176,21.619],[85.188,21.629],[85.195,21.641],[85.181,21.645],[85.182,21.656],[85.202,21.66],[85.21,21.675],[85.246,21.678]]],[[[84.871,21.174],[84.878,21.179],[84.876,21.17],[84.871,21.174]]]]}},{"type":"Feature","properties":{"d":"Baleswar"},"geometry":{"type":"Polygon","coordinates":[[[87.172,21.979],[87.197,21.959],[87.239,21.962],[87.237,21.942],[87.253,21.924],[87.238,21.904],[87.251,21.877],[87.246,21.861],[87.265,21.84],[87.271,21.828],[87.264,21.819],[87.276,21.819],[87.277,21.806],[87.297,21.811],[87.31,21.793],[87.336,21.794],[87.338,21.784],[87.355,21.792],[87.373,21.776],[87.369,21.766],[87.386,21.777],[87.396,21.767],[87.445,21.768],[87.445,21.743],[87.454,21.738],[87.445,21.734],[87.469,21.732],[87.463,21.724],[87.474,21.713],[87.473,21.698],[87.461,21.652],[87.472,21.652],[87.485,21.632],[87.486,21.608],[87.441,21.594],[87.442,21.584],[87.423,21.576],[87.41,21.552],[87.244,21.55],[87.116,21.512],[87.104,21.491],[87.061,21.47],[86.975,21.387],[86.859,21.212],[86.84,21.204],[86.803,21.231],[86.785,21.22],[86.77,21.226],[86.758,21.196],[86.774,21.173],[86.7,21.184],[86.691,21.168],[86.672,21.17],[86.654,21.129],[86.653,21.102],[86.665,21.098],[86.662,21.084],[86.642,21.081],[86.647,21.063],[86.625,21.074],[86.63,21.093],[86.587,21.1],[86.592,21.11],[86.557,21.16],[86.53,21.159],[86.511,21.137],[86.461,21.161],[86.451,21.154],[86.428,21.163],[86.44,21.18],[86.426,21.18],[86.448,21.195],[86.446,21.201],[86.436,21.205],[86.433,21.221],[86.422,21.223],[86.42,21.204],[86.407,21.219],[86.374,21.225],[86.364,21.238],[86.372,21.258],[86.353,21.285],[86.358,21.305],[86.424,21.331],[86.436,21.352],[86.485,21.378],[86.532,21.429],[86.582,21.523],[86.611,21.518],[86.626,21.534],[86.639,21.531],[86.648,21.581],[86.664,21.578],[86.683,21.596],[86.693,21.585],[86.71,21.587],[86.715,21.597],[86.752,21.607],[86.795,21.597],[86.806,21.609],[86.854,21.603],[86.864,21.59],[86.886,21.612],[86.874,21.623],[86.875,21.638],[86.912,21.592],[86.909,21.581],[86.92,21.592],[86.956,21.573],[86.955,21.596],[86.963,21.593],[86.96,21.581],[87.006,21.599],[86.987,21.629],[86.996,21.635],[86.997,21.623],[87.004,21.626],[87.013,21.648],[86.989,21.653],[86.989,21.671],[87.012,21.677],[87.031,21.661],[87.031,21.674],[87.053,21.686],[87.036,21.696],[87.038,21.72],[87.025,21.743],[87.046,21.74],[87.046,21.714],[87.069,21.707],[87.082,21.722],[87.087,21.717],[87.088,21.73],[87.093,21.726],[87.085,21.74],[87.096,21.734],[87.095,21.749],[87.122,21.754],[87.102,21.772],[87.102,21.785],[87.108,21.783],[87.111,21.789],[87.117,21.789],[87.121,21.772],[87.128,21.778],[87.145,21.764],[87.163,21.773],[87.16,21.787],[87.172,21.792],[87.172,21.812],[87.184,21.791],[87.178,21.814],[87.102,21.859],[87.099,21.891],[87.09,21.899],[87.107,21.924],[87.141,21.924],[87.161,21.935],[87.162,21.968],[87.172,21.979]],[[86.921,21.586],[86.923,21.587],[86.923,21.589],[86.922,21.589],[86.921,21.586]],[[86.901,21.596],[86.904,21.599],[86.902,21.599],[86.901,21.596]]]}},{"type":"Feature","properties":{"d":"Baragarh"},"geometry":{"type":"Polygon","coordinates":[[[83.555,21.742],[83.649,21.723],[83.696,21.699],[83.73,21.626],[83.799,21.564],[83.815,21.536],[83.846,21.527],[83.885,21.439],[83.879,21.426],[83.849,21.421],[83.846,21.414],[83.879,21.389],[83.87,21.311],[83.876,21.293],[83.889,21.295],[83.905,21.23],[83.846,21.099],[83.84,21.094],[83.799,21.114],[83.784,21.152],[83.768,21.155],[83.762,21.143],[83.714,21.12],[83.605,21.129],[83.595,21.108],[83.542,21.073],[83.492,21.062],[83.494,21.041],[83.462,21.062],[83.424,21.031],[83.391,21.071],[83.377,21.062],[83.352,21.071],[83.342,21.058],[83.321,21.056],[83.294,21.014],[83.327,20.994],[83.333,20.981],[83.361,21.004],[83.385,20.989],[83.391,20.965],[83.38,20.94],[83.414,20.91],[83.41,20.894],[83.349,20.874],[83.329,20.881],[83.317,20.861],[83.284,20.853],[83.278,20.842],[83.276,20.869],[83.251,20.899],[83.252,20.918],[83.219,20.932],[83.191,20.896],[83.145,20.882],[83.129,20.859],[83.102,20.875],[83.087,20.858],[83.031,20.854],[83.014,20.862],[83.002,20.849],[82.982,20.847],[82.973,20.885],[82.963,20.882],[82.967,20.893],[82.925,20.883],[82.926,20.895],[82.888,20.909],[82.771,20.802],[82.746,20.771],[82.734,20.723],[82.685,20.733],[82.698,20.761],[82.684,20.807],[82.682,20.886],[82.694,20.903],[82.699,20.937],[82.687,20.974],[82.692,21.023],[82.665,21.072],[82.634,21.09],[82.648,21.103],[82.64,21.117],[82.653,21.132],[82.636,21.151],[82.685,21.165],[82.701,21.158],[82.756,21.167],[82.793,21.142],[82.812,21.161],[82.851,21.168],[82.853,21.16],[82.878,21.164],[82.884,21.148],[82.902,21.167],[82.915,21.162],[82.938,21.17],[82.947,21.162],[82.943,21.177],[82.963,21.193],[82.965,21.176],[82.987,21.183],[82.98,21.17],[83.004,21.167],[82.986,21.151],[82.99,21.14],[83.004,21.137],[83.016,21.146],[83.078,21.112],[83.132,21.106],[83.167,21.139],[83.191,21.138],[83.215,21.194],[83.222,21.266],[83.251,21.282],[83.271,21.273],[83.279,21.29],[83.258,21.316],[83.267,21.331],[83.257,21.335],[83.274,21.363],[83.269,21.379],[83.379,21.344],[83.407,21.353],[83.397,21.367],[83.398,21.404],[83.385,21.414],[83.373,21.443],[83.354,21.448],[83.338,21.501],[83.373,21.558],[83.365,21.576],[83.383,21.62],[83.443,21.656],[83.453,21.651],[83.444,21.624],[83.467,21.609],[83.473,21.632],[83.489,21.63],[83.487,21.645],[83.528,21.678],[83.555,21.742]]]}},{"type":"Feature","properties":{"d":"Bhadrak"},"geometry":{"type":"Polygon","coordinates":[[[86.363,21.238],[86.374,21.225],[86.407,21.219],[86.42,21.204],[86.422,21.223],[86.438,21.217],[86.436,21.205],[86.448,21.195],[86.426,21.18],[86.44,21.18],[86.428,21.163],[86.449,21.155],[86.46,21.162],[86.511,21.137],[86.53,21.159],[86.557,21.16],[86.592,21.11],[86.587,21.1],[86.63,21.093],[86.625,21.074],[86.646,21.062],[86.642,21.081],[86.662,21.084],[86.665,21.095],[86.653,21.102],[86.654,21.129],[86.672,21.17],[86.691,21.168],[86.7,21.184],[86.774,21.173],[86.758,21.196],[86.77,21.226],[86.785,21.22],[86.802,21.231],[86.824,21.221],[86.817,21.218],[86.832,21.206],[86.855,21.21],[86.842,21.175],[86.848,21.096],[86.981,20.857],[86.965,20.782],[86.935,20.777],[86.873,20.788],[86.833,20.763],[86.823,20.744],[86.802,20.755],[86.793,20.731],[86.78,20.742],[86.763,20.734],[86.753,20.745],[86.754,20.77],[86.711,20.76],[86.707,20.776],[86.677,20.79],[86.613,20.796],[86.62,20.815],[86.6,20.83],[86.594,20.856],[86.575,20.862],[86.497,20.868],[86.482,20.856],[86.467,20.861],[86.451,20.844],[86.39,20.865],[86.356,20.851],[86.328,20.862],[86.334,20.877],[86.319,20.878],[86.309,20.897],[86.283,20.901],[86.277,20.915],[86.289,20.958],[86.286,21.02],[86.303,21.018],[86.311,21.058],[86.324,21.06],[86.318,21.081],[86.304,21.088],[86.308,21.113],[86.288,21.12],[86.29,21.131],[86.27,21.141],[86.295,21.177],[86.314,21.17],[86.321,21.182],[86.335,21.174],[86.348,21.192],[86.352,21.235],[86.363,21.238]]]}},{"type":"Feature","properties":{"d":"Bolangir"},"geometry":{"type":"MultiPolygon","coordinates":[[[[82.845,20.291],[82.85,20.341],[82.834,20.336],[82.814,20.358],[82.812,20.328],[82.788,20.325],[82.79,20.346],[82.812,20.362],[82.815,20.384],[82.803,20.385],[82.772,20.354],[82.745,20.362],[82.715,20.357],[82.73,20.383],[82.696,20.426],[82.699,20.443],[82.683,20.461],[82.705,20.504],[82.71,20.571],[82.729,20.586],[82.742,20.631],[82.727,20.64],[82.731,20.654],[82.719,20.679],[82.693,20.685],[82.7,20.729],[82.734,20.723],[82.746,20.771],[82.801,20.835],[82.888,20.909],[82.926,20.895],[82.925,20.883],[82.967,20.893],[82.963,20.882],[82.973,20.885],[82.982,20.847],[83.002,20.849],[83.014,20.862],[83.031,20.854],[83.087,20.858],[83.102,20.875],[83.129,20.859],[83.145,20.882],[83.191,20.896],[83.219,20.932],[83.252,20.918],[83.251,20.899],[83.276,20.869],[83.278,20.842],[83.284,20.853],[83.317,20.861],[83.329,20.881],[83.349,20.874],[83.41,20.894],[83.414,20.91],[83.38,20.94],[83.391,20.965],[83.385,20.989],[83.361,21.004],[83.333,20.981],[83.327,20.994],[83.294,21.014],[83.321,21.056],[83.342,21.058],[83.352,21.071],[83.377,21.062],[83.391,21.071],[83.424,21.031],[83.454,21.053],[83.446,21.016],[83.467,20.996],[83.49,20.995],[83.505,20.981],[83.53,20.985],[83.57,20.974],[83.639,20.983],[83.609,20.931],[83.618,20.901],[83.577,20.875],[83.57,20.845],[83.625,20.827],[83.619,20.817],[83.595,20.821],[83.593,20.8],[83.635,20.797],[83.636,20.77],[83.656,20.771],[83.653,20.745],[83.679,20.743],[83.665,20.704],[83.634,20.678],[83.64,20.67],[83.628,20.661],[83.621,20.63],[83.595,20.606],[83.596,20.579],[83.605,20.57],[83.595,20.543],[83.602,20.527],[83.579,20.521],[83.569,20.484],[83.584,20.488],[83.618,20.458],[83.618,20.447],[83.666,20.423],[83.647,20.381],[83.652,20.365],[83.627,20.368],[83.619,20.348],[83.576,20.363],[83.57,20.387],[83.549,20.402],[83.535,20.399],[83.5,20.416],[83.491,20.405],[83.487,20.418],[83.498,20.436],[83.486,20.455],[83.421,20.402],[83.412,20.374],[83.388,20.348],[83.365,20.343],[83.361,20.316],[83.301,20.305],[83.279,20.276],[83.239,20.257],[83.24,20.233],[83.225,20.204],[83.204,20.195],[83.192,20.177],[83.145,20.17],[83.128,20.195],[83.101,20.192],[83.091,20.2],[83.06,20.186],[83.034,20.187],[83.016,20.172],[82.926,20.18],[82.909,20.164],[82.909,20.146],[82.811,20.172],[82.817,20.189],[82.847,20.196],[82.861,20.231],[82.851,20.243],[82.861,20.27],[82.845,20.291]]],[[[82.845,20.291],[82.828,20.28],[82.813,20.289],[82.819,20.321],[82.835,20.321],[82.845,20.291]]]]}},{"type":"Feature","properties":{"d":"Boudh"},"geometry":{"type":"Polygon","coordinates":[[[84.217,20.896],[84.27,20.88],[84.347,20.837],[84.358,20.796],[84.35,20.78],[84.365,20.762],[84.419,20.739],[84.469,20.733],[84.516,20.702],[84.561,20.689],[84.636,20.624],[84.762,20.608],[84.789,20.581],[84.786,20.55],[84.766,20.532],[84.74,20.541],[84.712,20.524],[84.711,20.506],[84.697,20.498],[84.692,20.47],[84.68,20.46],[84.691,20.45],[84.681,20.433],[84.646,20.424],[84.618,20.435],[84.604,20.42],[84.59,20.424],[84.565,20.411],[84.543,20.419],[84.48,20.385],[84.461,20.4],[84.465,20.445],[84.454,20.466],[84.425,20.485],[84.434,20.508],[84.388,20.531],[84.382,20.559],[84.394,20.576],[84.38,20.588],[84.384,20.599],[84.369,20.651],[84.357,20.671],[84.339,20.672],[84.339,20.68],[84.315,20.69],[84.277,20.673],[84.281,20.635],[84.272,20.636],[84.257,20.602],[84.225,20.582],[84.185,20.584],[84.176,20.598],[84.145,20.578],[84.112,20.582],[84.105,20.592],[84.082,20.584],[84.06,20.59],[84.003,20.569],[83.977,20.586],[83.937,20.584],[83.929,20.596],[83.937,20.604],[83.921,20.611],[83.912,20.58],[83.874,20.582],[83.855,20.572],[83.843,20.547],[83.819,20.544],[83.819,20.522],[83.796,20.509],[83.811,20.463],[83.828,20.452],[83.813,20.455],[83.807,20.446],[83.815,20.436],[83.807,20.431],[83.784,20.441],[83.78,20.407],[83.755,20.426],[83.738,20.422],[83.719,20.435],[83.692,20.414],[83.676,20.43],[83.661,20.423],[83.655,20.434],[83.618,20.447],[83.618,20.458],[83.584,20.488],[83.569,20.484],[83.582,20.524],[83.652,20.54],[83.686,20.561],[83.729,20.607],[83.732,20.623],[83.716,20.64],[83.743,20.704],[83.759,20.72],[83.761,20.778],[83.788,20.803],[83.841,20.825],[83.866,20.816],[83.897,20.819],[83.925,20.836],[83.926,20.847],[83.97,20.837],[84.012,20.841],[84.046,20.821],[84.105,20.837],[84.217,20.896]]]}},{"type":"Feature","properties":{"d":"Cuttack"},"geometry":{"type":"Polygon","coordinates":[[[85.91,20.701],[85.958,20.687],[85.965,20.667],[85.986,20.662],[86.006,20.624],[86.049,20.589],[86.071,20.601],[86.078,20.595],[86.087,20.617],[86.117,20.614],[86.145,20.643],[86.16,20.65],[86.172,20.644],[86.188,20.657],[86.189,20.64],[86.164,20.638],[86.189,20.625],[86.204,20.633],[86.209,20.616],[86.25,20.605],[86.265,20.584],[86.28,20.581],[86.274,20.565],[86.257,20.562],[86.271,20.56],[86.248,20.537],[86.274,20.521],[86.268,20.509],[86.277,20.496],[86.262,20.485],[86.274,20.455],[86.265,20.451],[86.275,20.446],[86.268,20.425],[86.277,20.423],[86.265,20.396],[86.275,20.394],[86.257,20.376],[86.252,20.38],[86.248,20.364],[86.208,20.36],[86.189,20.375],[86.167,20.378],[86.134,20.357],[86.105,20.365],[86.114,20.369],[86.104,20.374],[86.093,20.362],[86.025,20.402],[86.01,20.372],[86.033,20.337],[86.024,20.322],[86.041,20.282],[86.071,20.264],[86.077,20.244],[86.149,20.215],[86.137,20.196],[86.15,20.186],[86.14,20.146],[86.159,20.134],[86.154,20.123],[86.164,20.112],[86.154,20.093],[86.182,20.06],[86.168,20.041],[86.122,20.039],[86.118,20.048],[86.127,20.059],[86.11,20.067],[86.088,20.058],[86.075,20.077],[86.089,20.087],[86.085,20.102],[86.065,20.124],[86.032,20.141],[86.045,20.142],[86.053,20.164],[86.037,20.179],[86.022,20.168],[86.028,20.182],[86.017,20.186],[86.003,20.225],[85.97,20.243],[85.95,20.271],[85.933,20.27],[85.939,20.283],[85.922,20.294],[85.91,20.319],[85.918,20.327],[85.927,20.313],[85.927,20.329],[85.899,20.354],[85.898,20.372],[85.879,20.357],[85.873,20.367],[85.88,20.378],[85.867,20.4],[85.861,20.396],[85.842,20.412],[85.823,20.409],[85.817,20.431],[85.785,20.434],[85.778,20.421],[85.786,20.411],[85.772,20.404],[85.768,20.416],[85.759,20.407],[85.718,20.405],[85.677,20.325],[85.664,20.332],[85.643,20.325],[85.624,20.293],[85.564,20.299],[85.551,20.313],[85.549,20.301],[85.525,20.305],[85.51,20.29],[85.46,20.297],[85.451,20.264],[85.42,20.274],[85.399,20.258],[85.395,20.279],[85.381,20.287],[85.355,20.273],[85.331,20.279],[85.355,20.302],[85.348,20.32],[85.357,20.345],[85.373,20.352],[85.367,20.366],[85.273,20.359],[85.203,20.379],[85.14,20.384],[85.115,20.407],[85.051,20.428],[84.955,20.486],[84.88,20.499],[84.848,20.528],[84.889,20.566],[84.895,20.583],[84.938,20.584],[84.98,20.565],[84.987,20.58],[85.027,20.59],[85.065,20.578],[85.085,20.595],[85.094,20.619],[85.178,20.601],[85.207,20.578],[85.198,20.568],[85.211,20.548],[85.251,20.519],[85.294,20.517],[85.351,20.497],[85.383,20.5],[85.4,20.487],[85.408,20.488],[85.406,20.509],[85.414,20.509],[85.457,20.484],[85.503,20.536],[85.586,20.514],[85.599,20.538],[85.656,20.55],[85.689,20.596],[85.709,20.606],[85.705,20.626],[85.712,20.624],[85.727,20.646],[85.754,20.636],[85.762,20.662],[85.781,20.663],[85.787,20.673],[85.81,20.66],[85.846,20.669],[85.888,20.659],[85.91,20.701]]]}},{"type":"Feature","properties":{"d":"Deogarh"},"geometry":{"type":"Polygon","coordinates":[[[84.655,21.764],[84.678,21.749],[84.675,21.736],[84.692,21.709],[84.718,21.717],[84.748,21.681],[84.741,21.67],[84.756,21.625],[84.794,21.637],[84.782,21.649],[84.79,21.668],[84.855,21.661],[84.861,21.651],[84.901,21.659],[84.914,21.67],[84.952,21.662],[84.956,21.684],[84.975,21.672],[84.998,21.683],[85.026,21.672],[85.029,21.628],[85.05,21.59],[85.093,21.604],[85.105,21.594],[85.132,21.6],[85.187,21.59],[85.213,21.557],[85.203,21.522],[85.156,21.461],[85.078,21.458],[85.06,21.442],[85.02,21.458],[85.026,21.448],[84.999,21.439],[84.991,21.41],[85.007,21.385],[85.01,21.322],[85.034,21.293],[85.012,21.298],[84.99,21.288],[84.957,21.297],[84.897,21.26],[84.927,21.234],[84.939,21.196],[84.97,21.189],[84.962,21.148],[84.949,21.149],[84.951,21.17],[84.927,21.181],[84.933,21.154],[84.92,21.141],[84.877,21.164],[84.818,21.172],[84.798,21.165],[84.814,21.147],[84.811,21.138],[84.789,21.133],[84.74,21.17],[84.739,21.195],[84.716,21.209],[84.721,21.228],[84.745,21.234],[84.753,21.227],[84.768,21.254],[84.752,21.259],[84.759,21.279],[84.709,21.32],[84.659,21.314],[84.668,21.305],[84.632,21.291],[84.629,21.276],[84.613,21.277],[84.603,21.261],[84.564,21.25],[84.565,21.324],[84.541,21.378],[84.518,21.382],[84.512,21.373],[84.499,21.375],[84.5,21.365],[84.486,21.37],[84.489,21.392],[84.449,21.394],[84.402,21.38],[84.395,21.392],[84.393,21.435],[84.414,21.455],[84.407,21.476],[84.417,21.487],[84.443,21.493],[84.44,21.518],[84.458,21.517],[84.471,21.539],[84.492,21.531],[84.504,21.551],[84.488,21.578],[84.509,21.572],[84.51,21.582],[84.534,21.568],[84.542,21.583],[84.569,21.581],[84.531,21.606],[84.525,21.625],[84.501,21.624],[84.485,21.64],[84.488,21.662],[84.502,21.667],[84.501,21.684],[84.541,21.679],[84.567,21.703],[84.629,21.698],[84.638,21.724],[84.631,21.74],[84.646,21.744],[84.655,21.764]],[[84.878,21.179],[84.871,21.174],[84.876,21.17],[84.878,21.179]]]}},{"type":"Feature","properties":{"d":"Dhenkanal"},"geometry":{"type":"Polygon","coordinates":[[[85.685,21.184],[85.707,21.181],[85.706,21.169],[85.728,21.141],[85.694,21.136],[85.681,21.112],[85.703,21.072],[85.728,21.065],[85.732,21.033],[85.718,20.996],[85.721,20.982],[85.741,20.992],[85.77,20.988],[85.808,20.959],[85.827,20.925],[85.841,20.933],[85.915,20.928],[85.919,20.902],[85.896,20.848],[85.946,20.844],[85.952,20.834],[85.958,20.84],[85.971,20.831],[85.968,20.824],[86.031,20.809],[86.02,20.774],[86.031,20.741],[86.023,20.727],[85.981,20.737],[85.96,20.722],[85.906,20.716],[85.91,20.691],[85.888,20.659],[85.846,20.669],[85.81,20.66],[85.787,20.673],[85.781,20.663],[85.762,20.662],[85.754,20.636],[85.729,20.646],[85.717,20.639],[85.704,20.622],[85.713,20.615],[85.709,20.606],[85.689,20.596],[85.656,20.55],[85.599,20.538],[85.586,20.514],[85.503,20.536],[85.457,20.484],[85.414,20.509],[85.406,20.509],[85.408,20.488],[85.4,20.487],[85.383,20.5],[85.351,20.497],[85.294,20.517],[85.251,20.519],[85.211,20.548],[85.198,20.568],[85.207,20.578],[85.156,20.611],[85.127,20.616],[85.135,20.644],[85.113,20.683],[85.139,20.731],[85.153,20.733],[85.16,20.708],[85.175,20.704],[85.164,20.676],[85.172,20.662],[85.193,20.68],[85.189,20.703],[85.216,20.751],[85.205,20.758],[85.195,20.786],[85.255,20.796],[85.257,20.876],[85.247,20.884],[85.258,20.894],[85.243,20.899],[85.239,20.912],[85.246,20.934],[85.24,20.961],[85.259,20.976],[85.257,20.992],[85.164,21.054],[85.183,21.082],[85.23,21.072],[85.272,21.176],[85.293,21.181],[85.316,21.159],[85.333,21.179],[85.347,21.169],[85.381,21.168],[85.393,21.183],[85.463,21.124],[85.497,21.114],[85.545,21.167],[85.607,21.136],[85.626,21.161],[85.663,21.167],[85.685,21.184]]]}},{"type":"Feature","properties":{"d":"Gajapati"},"geometry":{"type":"MultiPolygon","coordinates":[[[[83.955,19.636],[83.973,19.617],[84.002,19.628],[84.009,19.619],[84.026,19.637],[84.043,19.627],[84.061,19.635],[84.106,19.624],[84.108,19.632],[84.114,19.626],[84.134,19.631],[84.153,19.583],[84.208,19.594],[84.205,19.579],[84.216,19.585],[84.252,19.56],[84.259,19.589],[84.263,19.553],[84.276,19.554],[84.28,19.568],[84.298,19.579],[84.336,19.586],[84.334,19.599],[84.354,19.59],[84.367,19.596],[84.389,19.565],[84.381,19.536],[84.388,19.516],[84.376,19.483],[84.4,19.465],[84.402,19.448],[84.424,19.44],[84.389,19.436],[84.383,19.425],[84.374,19.429],[84.37,19.409],[84.394,19.396],[84.393,19.382],[84.384,19.391],[84.38,19.385],[84.393,19.373],[84.438,19.365],[84.406,19.316],[84.416,19.309],[84.426,19.261],[84.409,19.239],[84.415,19.223],[84.404,19.214],[84.405,19.204],[84.361,19.19],[84.369,19.18],[84.365,19.161],[84.388,19.141],[84.378,19.14],[84.367,19.122],[84.343,19.131],[84.345,19.109],[84.337,19.101],[84.344,19.093],[84.331,19.07],[84.34,19.069],[84.35,19.092],[84.371,19.104],[84.375,19.08],[84.354,19.066],[84.367,19.051],[84.347,19.014],[84.368,19.011],[84.354,18.988],[84.361,18.997],[84.387,18.98],[84.386,18.968],[84.41,18.974],[84.398,18.949],[84.411,18.938],[84.437,18.951],[84.438,18.924],[84.428,18.909],[84.41,18.919],[84.422,18.902],[84.409,18.894],[84.378,18.904],[84.397,18.891],[84.393,18.876],[84.358,18.896],[84.369,18.88],[84.384,18.876],[84.374,18.862],[84.362,18.86],[84.338,18.886],[84.347,18.848],[84.365,18.839],[84.35,18.821],[84.331,18.818],[84.344,18.802],[84.326,18.798],[84.324,18.789],[84.289,18.804],[84.282,18.789],[84.249,18.783],[84.238,18.799],[84.226,18.799],[84.214,18.794],[84.219,18.79],[84.196,18.792],[84.19,18.778],[84.159,18.788],[84.14,18.777],[84.138,18.761],[84.123,18.769],[84.089,18.758],[84.086,18.767],[84.076,18.764],[84.076,18.773],[84.067,18.782],[84.06,18.783],[84.056,18.791],[84.062,18.792],[84.053,18.792],[84.059,18.8],[84.058,18.8],[84.049,18.8],[84.039,18.816],[84.019,18.818],[84.005,18.808],[83.965,18.814],[83.95,18.804],[83.943,18.815],[83.905,18.829],[83.893,18.815],[83.891,18.828],[83.874,18.828],[83.872,18.847],[83.843,18.876],[83.846,18.916],[83.822,18.917],[83.829,18.93],[83.819,18.939],[83.818,18.971],[83.792,19.014],[83.802,19.031],[83.815,19.033],[83.832,19.006],[83.844,19.012],[83.858,18.984],[83.878,18.995],[83.891,18.99],[83.908,19.019],[83.95,18.998],[83.972,19.006],[83.986,19.022],[83.961,19.057],[83.975,19.071],[84.031,19.06],[84.014,19.099],[84.016,19.118],[84.031,19.135],[83.994,19.15],[83.985,19.164],[83.994,19.169],[83.989,19.187],[83.972,19.2],[83.995,19.241],[83.99,19.256],[84.001,19.257],[84.021,19.292],[84.016,19.304],[84.03,19.344],[84.012,19.38],[83.977,19.391],[83.97,19.382],[83.963,19.396],[83.947,19.397],[83.948,19.416],[83.941,19.418],[83.979,19.49],[83.972,19.509],[83.98,19.532],[83.95,19.548],[83.948,19.563],[83.928,19.571],[83.935,19.592],[83.926,19.63],[83.955,19.636]],[[83.878,18.828],[83.879,18.829],[83.878,18.829],[83.878,18.828]],[[83.877,18.83],[83.878,18.83],[83.876,18.83],[83.877,18.83]],[[83.849,18.917],[83.847,18.915],[83.85,18.914],[83.849,18.917]],[[83.83,18.973],[83.829,18.973],[83.829,18.973],[83.83,18.973]],[[83.826,18.919],[83.828,18.921],[83.826,18.922],[83.826,18.919]],[[83.827,18.973],[83.826,18.972],[83.826,18.972],[83.827,18.973]],[[83.826,18.971],[83.826,18.971],[83.826,18.971],[83.826,18.971]],[[83.824,18.961],[83.824,18.96],[83.824,18.961],[83.824,18.961]],[[83.822,18.974],[83.822,18.973],[83.822,18.973],[83.822,18.974]],[[83.822,18.971],[83.822,18.972],[83.822,18.972],[83.822,18.971]]],[[[84.411,19.062],[84.423,19.064],[84.418,19.055],[84.411,19.062]]],[[[84.404,19.035],[84.413,19.041],[84.409,19.028],[84.404,19.035]]],[[[84.349,18.79],[84.354,18.79],[84.352,18.787],[84.349,18.79]]],[[[84.328,18.787],[84.34,18.79],[84.34,18.778],[84.328,18.787]]],[[[84.07,18.778],[84.071,18.772],[84.07,18.771],[84.07,18.778]]],[[[84.057,18.8],[84.057,18.799],[84.056,18.8],[84.057,18.8]]],[[[83.94,18.81],[83.937,18.809],[83.937,18.81],[83.94,18.81]]],[[[83.937,18.815],[83.936,18.813],[83.936,18.815],[83.937,18.815]]],[[[83.872,18.831],[83.87,18.83],[83.872,18.833],[83.872,18.831]]],[[[83.858,18.853],[83.864,18.85],[83.864,18.85],[83.858,18.853]]]]}},{"type":"Feature","properties":{"d":"Ganjam"},"geometry":{"type":"MultiPolygon","coordinates":[[[[84.697,20.281],[84.736,20.244],[84.765,20.246],[84.832,20.217],[84.822,20.121],[84.807,20.115],[84.798,20.091],[84.811,20.067],[84.857,20.031],[84.865,19.997],[84.9,19.993],[84.921,19.943],[84.907,19.908],[84.928,19.908],[84.94,19.897],[84.936,19.875],[84.969,19.854],[84.984,19.823],[85.003,19.807],[85.044,19.806],[85.072,19.795],[85.091,19.764],[85.139,19.739],[85.144,19.72],[85.182,19.678],[85.174,19.559],[85.136,19.519],[85.173,19.468],[85.105,19.416],[85.064,19.365],[84.954,19.295],[84.857,19.21],[84.808,19.152],[84.767,19.079],[84.703,19.118],[84.701,19.144],[84.711,19.146],[84.712,19.158],[84.671,19.166],[84.667,19.13],[84.596,19.132],[84.61,19.101],[84.625,19.099],[84.625,19.085],[84.645,19.097],[84.659,19.094],[84.67,19.076],[84.661,19.062],[84.619,19.066],[84.62,19.056],[84.594,19.022],[84.58,19.038],[84.583,19.074],[84.561,19.059],[84.516,19.048],[84.482,19.016],[84.479,18.988],[84.449,19.003],[84.442,19.003],[84.452,18.976],[84.432,18.965],[84.437,18.951],[84.411,18.938],[84.394,18.955],[84.413,18.967],[84.41,18.974],[84.386,18.968],[84.387,18.98],[84.361,18.997],[84.354,18.988],[84.368,19.011],[84.347,19.014],[84.367,19.051],[84.354,19.066],[84.375,19.08],[84.371,19.104],[84.35,19.092],[84.34,19.069],[84.331,19.07],[84.344,19.093],[84.337,19.101],[84.345,19.109],[84.343,19.131],[84.367,19.122],[84.378,19.14],[84.388,19.141],[84.365,19.161],[84.369,19.18],[84.361,19.19],[84.405,19.204],[84.404,19.214],[84.415,19.223],[84.409,19.239],[84.426,19.261],[84.416,19.309],[84.406,19.316],[84.438,19.365],[84.393,19.373],[84.38,19.385],[84.384,19.391],[84.393,19.382],[84.394,19.396],[84.37,19.409],[84.374,19.429],[84.383,19.425],[84.389,19.436],[84.424,19.44],[84.402,19.448],[84.4,19.465],[84.376,19.483],[84.388,19.516],[84.381,19.536],[84.389,19.565],[84.367,19.596],[84.354,19.59],[84.334,19.599],[84.336,19.586],[84.298,19.579],[84.271,19.552],[84.262,19.554],[84.263,19.588],[84.252,19.56],[84.229,19.574],[84.24,19.578],[84.237,19.609],[84.224,19.628],[84.25,19.657],[84.202,19.686],[84.191,19.712],[84.201,19.734],[84.149,19.729],[84.151,19.749],[84.13,19.781],[84.174,19.793],[84.165,19.805],[84.173,19.822],[84.2,19.835],[84.185,19.86],[84.274,19.879],[84.306,19.908],[84.324,19.873],[84.358,19.863],[84.376,19.845],[84.449,19.835],[84.443,19.845],[84.462,19.857],[84.456,19.906],[84.47,19.941],[84.463,19.955],[84.405,19.963],[84.39,19.957],[84.356,19.99],[84.336,19.978],[84.323,19.99],[84.358,20.033],[84.364,20.026],[84.417,20.049],[84.404,20.083],[84.441,20.146],[84.435,20.2],[84.452,20.2],[84.459,20.188],[84.453,20.168],[84.486,20.141],[84.509,20.136],[84.513,20.151],[84.523,20.153],[84.527,20.144],[84.56,20.139],[84.558,20.157],[84.588,20.171],[84.586,20.187],[84.608,20.178],[84.647,20.201],[84.672,20.274],[84.697,20.281]],[[84.634,19.075],[84.633,19.074],[84.633,19.073],[84.634,19.075]],[[84.633,19.072],[84.633,19.071],[84.633,19.071],[84.633,19.072]],[[84.632,19.079],[84.633,19.078],[84.633,19.079],[84.632,19.079]],[[84.423,19.064],[84.412,19.061],[84.418,19.055],[84.423,19.064]],[[84.413,19.041],[84.404,19.035],[84.409,19.028],[84.413,19.041]]],[[[84.613,19.127],[84.612,19.126],[84.612,19.128],[84.613,19.127]]],[[[84.606,19.127],[84.611,19.127],[84.611,19.125],[84.606,19.127]]],[[[84.605,19.129],[84.605,19.13],[84.606,19.129],[84.605,19.129]]]]}},{"type":"Feature","properties":{"d":"Jagatsingpur"},"geometry":{"type":"Polygon","coordinates":[[[86.025,20.402],[86.049,20.392],[86.093,20.362],[86.104,20.374],[86.114,20.369],[86.105,20.365],[86.134,20.357],[86.167,20.378],[86.189,20.375],[86.208,20.36],[86.269,20.373],[86.273,20.357],[86.287,20.363],[86.307,20.355],[86.309,20.362],[86.316,20.354],[86.336,20.371],[86.349,20.351],[86.369,20.36],[86.39,20.354],[86.394,20.365],[86.412,20.359],[86.423,20.343],[86.433,20.347],[86.431,20.336],[86.454,20.33],[86.52,20.341],[86.554,20.324],[86.606,20.343],[86.669,20.327],[86.692,20.298],[86.715,20.297],[86.74,20.314],[86.745,20.306],[86.673,20.265],[86.676,20.258],[86.582,20.22],[86.525,20.174],[86.493,20.116],[86.434,20.052],[86.418,20.021],[86.419,20.007],[86.434,20.017],[86.431,20.012],[86.392,19.98],[86.382,19.961],[86.37,19.982],[86.34,19.987],[86.328,20.022],[86.27,20.041],[86.279,20.054],[86.222,20.036],[86.206,20.039],[86.2,20.054],[86.182,20.052],[86.154,20.093],[86.164,20.112],[86.154,20.123],[86.159,20.134],[86.14,20.146],[86.15,20.186],[86.137,20.196],[86.149,20.215],[86.077,20.244],[86.071,20.264],[86.032,20.295],[86.024,20.322],[86.033,20.337],[86.01,20.37],[86.025,20.402]]]}},{"type":"Feature","properties":{"d":"Jajpur"},"geometry":{"type":"Polygon","coordinates":[[[86.087,21.166],[86.075,21.154],[86.075,21.131],[86.051,21.118],[86.03,21.084],[86.036,21.04],[86.048,21.022],[86.083,21.015],[86.094,21.054],[86.131,21.067],[86.134,21.076],[86.188,21.057],[86.204,21.061],[86.234,21.039],[86.261,21.039],[86.287,21.018],[86.289,20.958],[86.277,20.915],[86.283,20.901],[86.309,20.897],[86.319,20.878],[86.334,20.877],[86.328,20.862],[86.356,20.851],[86.39,20.865],[86.451,20.844],[86.468,20.861],[86.482,20.856],[86.512,20.87],[86.594,20.856],[86.6,20.83],[86.623,20.808],[86.613,20.798],[86.623,20.793],[86.621,20.781],[86.606,20.772],[86.588,20.78],[86.565,20.774],[86.542,20.752],[86.538,20.734],[86.561,20.738],[86.546,20.721],[86.558,20.704],[86.527,20.69],[86.513,20.698],[86.507,20.686],[86.488,20.68],[86.467,20.689],[86.452,20.676],[86.452,20.648],[86.427,20.645],[86.422,20.623],[86.407,20.628],[86.377,20.594],[86.353,20.611],[86.331,20.607],[86.32,20.629],[86.313,20.595],[86.319,20.588],[86.3,20.579],[86.265,20.584],[86.252,20.604],[86.209,20.616],[86.204,20.633],[86.189,20.625],[86.164,20.638],[86.189,20.64],[86.188,20.657],[86.172,20.644],[86.16,20.65],[86.145,20.643],[86.117,20.614],[86.087,20.617],[86.078,20.595],[86.071,20.601],[86.049,20.589],[86.006,20.624],[85.986,20.662],[85.965,20.667],[85.953,20.691],[85.905,20.705],[85.906,20.716],[85.96,20.722],[85.981,20.737],[86.023,20.727],[86.031,20.741],[86.02,20.774],[86.031,20.809],[85.968,20.824],[85.971,20.831],[85.958,20.84],[85.952,20.834],[85.946,20.844],[85.896,20.848],[85.919,20.902],[85.915,20.928],[85.841,20.933],[85.827,20.925],[85.808,20.959],[85.77,20.988],[85.741,20.992],[85.722,20.981],[85.718,20.996],[85.732,21.033],[85.728,21.065],[85.703,21.072],[85.681,21.112],[85.694,21.136],[85.736,21.142],[85.736,21.153],[85.762,21.145],[85.766,21.115],[85.779,21.102],[85.807,21.106],[85.822,21.091],[85.848,21.096],[85.887,21.086],[85.917,21.092],[85.93,21.138],[85.939,21.127],[85.963,21.13],[85.959,21.138],[85.975,21.144],[85.982,21.137],[86.007,21.146],[86.026,21.14],[86.036,21.161],[86.062,21.152],[86.068,21.165],[86.087,21.166]]]}},{"type":"Feature","properties":{"d":"Jharsuguda"},"geometry":{"type":"Polygon","coordinates":[[[84.294,22.034],[84.355,22.038],[84.387,22.027],[84.39,21.997],[84.37,21.976],[84.372,21.954],[84.326,21.866],[84.327,21.838],[84.291,21.792],[84.287,21.766],[84.268,21.758],[84.252,21.766],[84.238,21.748],[84.208,21.746],[84.211,21.738],[84.195,21.735],[84.185,21.721],[84.148,21.731],[84.145,21.775],[84.112,21.79],[84.085,21.773],[84.054,21.776],[84.034,21.758],[84.01,21.78],[83.989,21.751],[83.966,21.765],[83.942,21.73],[83.968,21.706],[83.977,21.662],[83.979,21.587],[83.972,21.573],[83.873,21.577],[83.815,21.596],[83.799,21.564],[83.73,21.626],[83.693,21.701],[83.649,21.723],[83.566,21.744],[83.545,21.731],[83.526,21.675],[83.487,21.644],[83.448,21.657],[83.419,21.681],[83.431,21.699],[83.46,21.698],[83.489,21.745],[83.476,21.752],[83.483,21.765],[83.469,21.787],[83.485,21.796],[83.493,21.818],[83.522,21.8],[83.541,21.799],[83.54,21.822],[83.53,21.826],[83.541,21.838],[83.59,21.826],[83.624,21.849],[83.636,21.819],[83.675,21.808],[83.689,21.79],[83.719,21.786],[83.738,21.817],[83.793,21.866],[83.812,21.855],[83.817,21.885],[83.82,21.884],[83.825,21.879],[83.827,21.878],[83.829,21.877],[83.829,21.877],[83.829,21.877],[83.831,21.896],[83.865,21.911],[83.852,21.924],[83.877,21.923],[83.896,21.946],[83.957,21.942],[83.976,21.905],[84.004,21.923],[84.027,21.954],[84.061,21.934],[84.079,21.937],[84.088,21.963],[84.084,21.98],[84.07,21.989],[84.086,21.99],[84.089,21.999],[84.106,21.993],[84.117,22.013],[84.138,21.997],[84.168,22.002],[84.203,21.978],[84.229,21.975],[84.268,22.016],[84.284,22.015],[84.294,22.034]]]}},{"type":"Feature","properties":{"d":"Kalahandi"},"geometry":{"type":"Polygon","coordinates":[[[83.488,20.451],[83.498,20.436],[83.487,20.418],[83.491,20.405],[83.5,20.416],[83.535,20.399],[83.553,20.4],[83.57,20.387],[83.576,20.363],[83.624,20.347],[83.627,20.368],[83.652,20.366],[83.65,20.388],[83.704,20.369],[83.718,20.255],[83.723,20.234],[83.736,20.226],[83.73,20.212],[83.781,20.209],[83.792,20.197],[83.79,20.181],[83.773,20.159],[83.764,20.164],[83.732,20.146],[83.726,20.125],[83.716,20.128],[83.711,20.101],[83.692,20.1],[83.676,20.111],[83.633,20.088],[83.584,20.114],[83.588,20.099],[83.572,20.086],[83.569,20.056],[83.549,20.048],[83.541,20.021],[83.52,20.015],[83.501,19.994],[83.495,19.961],[83.447,19.973],[83.442,19.934],[83.418,19.934],[83.405,19.921],[83.431,19.871],[83.421,19.85],[83.439,19.832],[83.432,19.826],[83.436,19.804],[83.459,19.796],[83.451,19.785],[83.454,19.736],[83.417,19.685],[83.384,19.668],[83.377,19.646],[83.383,19.637],[83.37,19.62],[83.374,19.598],[83.358,19.607],[83.318,19.592],[83.288,19.597],[83.288,19.589],[83.267,19.602],[83.269,19.578],[83.253,19.571],[83.265,19.559],[83.263,19.548],[83.249,19.542],[83.257,19.53],[83.246,19.505],[83.228,19.506],[83.205,19.474],[83.209,19.443],[83.192,19.465],[83.184,19.463],[83.186,19.423],[83.169,19.427],[83.153,19.456],[83.148,19.471],[83.16,19.481],[83.139,19.511],[83.123,19.498],[83.114,19.502],[83.11,19.527],[83.102,19.526],[83.108,19.538],[83.09,19.538],[83.07,19.562],[83.036,19.55],[83.024,19.508],[82.998,19.496],[82.991,19.483],[82.988,19.473],[82.999,19.468],[82.99,19.452],[82.962,19.438],[82.936,19.451],[82.922,19.441],[82.936,19.425],[82.938,19.403],[82.953,19.392],[82.945,19.364],[82.963,19.347],[82.938,19.323],[82.927,19.289],[82.914,19.301],[82.903,19.283],[82.906,19.269],[82.888,19.256],[82.907,19.232],[82.884,19.218],[82.892,19.205],[82.878,19.198],[82.85,19.207],[82.836,19.236],[82.799,19.236],[82.824,19.256],[82.841,19.308],[82.853,19.308],[82.842,19.317],[82.847,19.324],[82.798,19.329],[82.779,19.345],[82.755,19.327],[82.74,19.349],[82.726,19.345],[82.725,19.354],[82.714,19.356],[82.718,19.37],[82.707,19.388],[82.717,19.411],[82.696,19.418],[82.68,19.439],[82.673,19.435],[82.66,19.457],[82.65,19.46],[82.649,19.478],[82.633,19.482],[82.647,19.508],[82.607,19.521],[82.616,19.539],[82.566,19.545],[82.568,19.566],[82.558,19.582],[82.528,19.584],[82.547,19.612],[82.524,19.632],[82.556,19.646],[82.575,19.679],[82.567,19.688],[82.573,19.714],[82.563,19.728],[82.602,19.747],[82.596,19.779],[82.627,19.794],[82.652,19.832],[82.702,19.831],[82.712,19.84],[82.724,19.875],[82.714,19.877],[82.708,19.902],[82.72,19.948],[82.717,20.007],[82.728,20.024],[82.745,20.025],[82.748,20.042],[82.74,20.053],[82.755,20.054],[82.788,20.103],[82.814,20.102],[82.823,20.165],[82.884,20.158],[82.909,20.146],[82.909,20.164],[82.926,20.18],[83.016,20.172],[83.034,20.187],[83.06,20.186],[83.091,20.2],[83.101,20.192],[83.128,20.195],[83.145,20.17],[83.19,20.176],[83.204,20.195],[83.225,20.204],[83.24,20.233],[83.239,20.257],[83.279,20.276],[83.301,20.305],[83.361,20.316],[83.365,20.343],[83.387,20.347],[83.412,20.374],[83.421,20.402],[83.488,20.451]]]}},{"type":"Feature","properties":{"d":"Kandhamal"},"geometry":{"type":"Polygon","coordinates":[[[84.345,20.67],[84.357,20.671],[84.369,20.651],[84.384,20.599],[84.38,20.588],[84.394,20.576],[84.382,20.559],[84.388,20.531],[84.433,20.509],[84.425,20.485],[84.454,20.466],[84.465,20.446],[84.461,20.4],[84.481,20.385],[84.51,20.396],[84.52,20.381],[84.518,20.369],[84.485,20.346],[84.486,20.336],[84.511,20.337],[84.515,20.319],[84.543,20.323],[84.553,20.284],[84.542,20.252],[84.588,20.173],[84.558,20.157],[84.561,20.139],[84.527,20.144],[84.523,20.153],[84.513,20.151],[84.509,20.136],[84.486,20.141],[84.454,20.167],[84.459,20.188],[84.447,20.205],[84.436,20.2],[84.441,20.146],[84.404,20.083],[84.417,20.049],[84.364,20.026],[84.358,20.033],[84.328,20.005],[84.329,19.981],[84.356,19.99],[84.39,19.957],[84.405,19.963],[84.464,19.954],[84.47,19.941],[84.456,19.906],[84.462,19.857],[84.443,19.845],[84.449,19.835],[84.376,19.845],[84.358,19.863],[84.324,19.873],[84.306,19.908],[84.274,19.879],[84.185,19.86],[84.2,19.835],[84.173,19.822],[84.165,19.805],[84.174,19.793],[84.13,19.78],[84.151,19.749],[84.149,19.729],[84.201,19.734],[84.191,19.712],[84.202,19.686],[84.25,19.657],[84.224,19.628],[84.237,19.609],[84.234,19.573],[84.215,19.585],[84.205,19.579],[84.207,19.594],[84.153,19.583],[84.136,19.629],[84.128,19.632],[84.114,19.626],[84.111,19.633],[84.108,19.632],[84.106,19.624],[84.061,19.635],[84.043,19.627],[84.026,19.637],[84.009,19.619],[84.002,19.628],[83.973,19.617],[83.956,19.635],[83.94,19.635],[83.934,19.658],[83.924,19.664],[83.936,19.672],[83.93,19.679],[83.873,19.672],[83.854,19.685],[83.844,19.709],[83.833,19.707],[83.815,19.719],[83.791,19.711],[83.766,19.716],[83.763,19.677],[83.742,19.655],[83.73,19.655],[83.722,19.672],[83.695,19.691],[83.648,19.657],[83.634,19.671],[83.644,19.698],[83.633,19.732],[83.626,19.746],[83.607,19.749],[83.622,19.778],[83.604,19.831],[83.573,19.828],[83.557,19.844],[83.54,19.846],[83.535,19.858],[83.528,19.854],[83.524,19.883],[83.559,19.929],[83.533,19.949],[83.495,19.961],[83.501,19.994],[83.52,20.015],[83.541,20.021],[83.549,20.048],[83.569,20.056],[83.572,20.086],[83.588,20.099],[83.584,20.114],[83.633,20.088],[83.676,20.111],[83.692,20.1],[83.711,20.101],[83.716,20.128],[83.726,20.125],[83.732,20.146],[83.764,20.164],[83.773,20.159],[83.792,20.186],[83.781,20.209],[83.73,20.212],[83.736,20.226],[83.723,20.234],[83.718,20.255],[83.7,20.352],[83.706,20.367],[83.653,20.384],[83.658,20.414],[83.675,20.43],[83.692,20.414],[83.719,20.435],[83.738,20.422],[83.755,20.426],[83.78,20.407],[83.784,20.441],[83.807,20.431],[83.815,20.436],[83.807,20.446],[83.813,20.455],[83.828,20.452],[83.811,20.463],[83.796,20.509],[83.819,20.522],[83.819,20.544],[83.843,20.547],[83.855,20.572],[83.874,20.582],[83.912,20.58],[83.921,20.611],[83.937,20.604],[83.929,20.596],[83.937,20.584],[83.977,20.586],[84.003,20.569],[84.06,20.59],[84.082,20.584],[84.105,20.592],[84.112,20.582],[84.145,20.578],[84.176,20.598],[84.185,20.584],[84.225,20.582],[84.257,20.602],[84.272,20.636],[84.281,20.635],[84.273,20.668],[84.287,20.68],[84.326,20.688],[84.345,20.67]]]}},{"type":"Feature","properties":{"d":"Kendrapada"},"geometry":{"type":"MultiPolygon","coordinates":[[[[86.622,20.797],[86.636,20.798],[86.642,20.788],[86.654,20.797],[86.66,20.787],[86.677,20.79],[86.707,20.776],[86.711,20.76],[86.754,20.77],[86.756,20.739],[86.765,20.734],[86.78,20.742],[86.791,20.731],[86.801,20.755],[86.823,20.744],[86.833,20.763],[86.874,20.788],[86.942,20.78],[86.951,20.776],[86.945,20.767],[87.022,20.77],[87.041,20.759],[87.041,20.738],[87.058,20.717],[86.889,20.6],[86.893,20.607],[86.856,20.586],[86.76,20.505],[86.744,20.469],[86.741,20.47],[86.74,20.475],[86.737,20.478],[86.727,20.4],[86.739,20.401],[86.747,20.389],[86.776,20.406],[86.783,20.381],[86.789,20.377],[86.781,20.366],[86.775,20.35],[86.774,20.348],[86.774,20.347],[86.781,20.358],[86.793,20.366],[86.796,20.37],[86.8,20.364],[86.777,20.333],[86.715,20.297],[86.689,20.299],[86.682,20.319],[86.669,20.327],[86.606,20.343],[86.551,20.324],[86.52,20.341],[86.488,20.332],[86.431,20.336],[86.433,20.347],[86.423,20.343],[86.412,20.359],[86.394,20.365],[86.39,20.354],[86.369,20.36],[86.358,20.351],[86.349,20.351],[86.336,20.371],[86.325,20.369],[86.318,20.354],[86.309,20.362],[86.307,20.355],[86.287,20.363],[86.273,20.357],[86.269,20.373],[86.248,20.365],[86.252,20.38],[86.257,20.376],[86.261,20.387],[86.273,20.388],[86.265,20.405],[86.277,20.423],[86.268,20.425],[86.275,20.446],[86.265,20.451],[86.274,20.455],[86.262,20.485],[86.277,20.496],[86.268,20.509],[86.276,20.519],[86.248,20.537],[86.271,20.56],[86.257,20.562],[86.274,20.565],[86.283,20.583],[86.314,20.581],[86.32,20.629],[86.331,20.607],[86.353,20.611],[86.377,20.594],[86.407,20.628],[86.422,20.623],[86.427,20.645],[86.452,20.648],[86.452,20.676],[86.467,20.689],[86.487,20.68],[86.507,20.686],[86.513,20.698],[86.526,20.69],[86.542,20.694],[86.547,20.706],[86.559,20.705],[86.546,20.721],[86.561,20.738],[86.538,20.734],[86.542,20.752],[86.565,20.774],[86.588,20.78],[86.609,20.772],[86.621,20.781],[86.622,20.797]]],[[[86.808,20.397],[86.809,20.375],[86.801,20.366],[86.798,20.401],[86.808,20.397]]],[[[86.803,20.479],[86.805,20.437],[86.789,20.385],[86.789,20.432],[86.801,20.445],[86.803,20.479]]],[[[86.793,20.367],[86.791,20.377],[86.793,20.38],[86.799,20.376],[86.793,20.367]]],[[[86.794,20.387],[86.792,20.383],[86.793,20.388],[86.794,20.387]]],[[[86.786,20.382],[86.79,20.382],[86.789,20.38],[86.786,20.382]]],[[[86.786,20.363],[86.783,20.363],[86.786,20.365],[86.786,20.363]]]]}},{"type":"Feature","properties":{"d":"Keonjhar"},"geometry":{"type":"Polygon","coordinates":[[[85.403,22.162],[85.515,22.116],[85.539,22.102],[85.542,22.091],[85.56,22.096],[85.597,22.079],[85.652,22.097],[85.679,22.063],[85.662,22.034],[85.669,22.015],[85.701,22.006],[85.697,21.993],[85.706,21.985],[85.737,21.993],[85.747,21.977],[85.765,21.974],[85.794,21.951],[85.788,21.903],[85.805,21.887],[85.809,21.812],[85.825,21.802],[85.839,21.811],[85.872,21.796],[85.901,21.767],[85.937,21.764],[85.97,21.738],[86.013,21.752],[86.027,21.725],[86.024,21.697],[86.036,21.694],[86.049,21.719],[86.055,21.696],[86.082,21.692],[86.072,21.664],[86.079,21.631],[86.046,21.578],[86.015,21.561],[86.007,21.533],[86.129,21.472],[86.161,21.423],[86.136,21.401],[86.12,21.371],[86.124,21.36],[86.105,21.352],[86.105,21.326],[86.089,21.314],[86.106,21.305],[86.113,21.274],[86.135,21.265],[86.135,21.282],[86.156,21.293],[86.185,21.272],[86.206,21.281],[86.224,21.324],[86.266,21.364],[86.264,21.383],[86.359,21.311],[86.353,21.285],[86.372,21.258],[86.368,21.24],[86.351,21.232],[86.348,21.191],[86.335,21.174],[86.321,21.182],[86.314,21.17],[86.295,21.177],[86.272,21.151],[86.27,21.141],[86.29,21.131],[86.288,21.12],[86.308,21.113],[86.304,21.088],[86.318,21.081],[86.323,21.064],[86.319,21.054],[86.311,21.058],[86.303,21.018],[86.283,21.021],[86.261,21.039],[86.234,21.039],[86.204,21.061],[86.188,21.057],[86.134,21.076],[86.131,21.067],[86.094,21.054],[86.083,21.015],[86.048,21.022],[86.036,21.04],[86.03,21.084],[86.051,21.118],[86.075,21.131],[86.082,21.171],[86.062,21.152],[86.036,21.161],[86.028,21.14],[86.007,21.146],[85.982,21.137],[85.975,21.144],[85.959,21.138],[85.963,21.13],[85.939,21.127],[85.93,21.138],[85.917,21.092],[85.887,21.086],[85.848,21.096],[85.822,21.091],[85.807,21.106],[85.772,21.105],[85.762,21.145],[85.736,21.153],[85.737,21.142],[85.728,21.141],[85.706,21.169],[85.707,21.181],[85.683,21.186],[85.663,21.167],[85.626,21.161],[85.607,21.136],[85.545,21.167],[85.497,21.114],[85.471,21.12],[85.392,21.183],[85.375,21.229],[85.356,21.248],[85.297,21.276],[85.287,21.264],[85.27,21.274],[85.272,21.302],[85.297,21.308],[85.297,21.318],[85.315,21.33],[85.324,21.32],[85.343,21.366],[85.326,21.391],[85.305,21.397],[85.307,21.413],[85.272,21.429],[85.256,21.451],[85.263,21.458],[85.304,21.448],[85.332,21.481],[85.328,21.51],[85.32,21.536],[85.301,21.531],[85.299,21.547],[85.313,21.568],[85.303,21.567],[85.286,21.584],[85.283,21.596],[85.294,21.598],[85.266,21.623],[85.253,21.675],[85.21,21.675],[85.202,21.66],[85.191,21.661],[85.186,21.677],[85.193,21.695],[85.185,21.708],[85.213,21.74],[85.2,21.761],[85.222,21.816],[85.23,21.819],[85.243,21.805],[85.291,21.837],[85.309,21.82],[85.337,21.823],[85.364,21.858],[85.376,21.936],[85.314,21.959],[85.285,21.955],[85.231,21.997],[85.275,22.081],[85.309,22.117],[85.327,22.128],[85.358,22.125],[85.366,22.158],[85.403,22.162]]]}},{"type":"Feature","properties":{"d":"Khurda"},"geometry":{"type":"Polygon","coordinates":[[[85.802,20.435],[85.817,20.431],[85.824,20.408],[85.842,20.412],[85.861,20.396],[85.867,20.4],[85.88,20.378],[85.873,20.367],[85.879,20.357],[85.898,20.372],[85.899,20.354],[85.927,20.329],[85.927,20.313],[85.918,20.327],[85.91,20.319],[85.922,20.294],[85.939,20.283],[85.933,20.27],[85.95,20.271],[85.97,20.243],[86.003,20.225],[86.017,20.186],[86.028,20.182],[86.022,20.168],[86.037,20.179],[86.053,20.164],[86.045,20.142],[86.032,20.141],[86.065,20.124],[86.079,20.106],[86.021,20.101],[86.01,20.113],[85.994,20.108],[85.96,20.122],[85.953,20.113],[85.946,20.121],[85.93,20.112],[85.902,20.128],[85.897,20.112],[85.88,20.113],[85.873,20.126],[85.904,20.155],[85.888,20.17],[85.891,20.18],[85.852,20.203],[85.84,20.2],[85.837,20.195],[85.854,20.193],[85.854,20.177],[85.844,20.176],[85.836,20.191],[85.825,20.159],[85.806,20.161],[85.797,20.152],[85.762,20.168],[85.757,20.142],[85.729,20.15],[85.724,20.13],[85.715,20.136],[85.72,20.143],[85.702,20.144],[85.691,20.158],[85.675,20.125],[85.684,20.098],[85.693,20.099],[85.672,20.087],[85.678,20.07],[85.65,20.067],[85.649,20.097],[85.632,20.102],[85.644,20.083],[85.619,20.067],[85.613,20.038],[85.629,20.024],[85.614,19.993],[85.607,19.996],[85.615,20.02],[85.589,19.998],[85.571,20.026],[85.571,19.998],[85.566,20.004],[85.562,19.995],[85.569,19.982],[85.555,19.974],[85.567,19.972],[85.564,19.955],[85.551,19.954],[85.55,19.963],[85.547,19.956],[85.532,19.958],[85.524,19.979],[85.499,19.947],[85.519,19.941],[85.507,19.927],[85.52,19.93],[85.527,19.944],[85.534,19.939],[85.531,19.928],[85.568,19.917],[85.562,19.855],[85.5,19.87],[85.503,19.885],[85.439,19.883],[85.387,19.831],[85.36,19.823],[85.33,19.786],[85.286,19.782],[85.252,19.768],[85.249,19.744],[85.218,19.74],[85.199,19.706],[85.212,19.687],[85.195,19.674],[85.182,19.672],[85.139,19.739],[85.091,19.764],[85.072,19.795],[85.044,19.806],[85.003,19.807],[84.984,19.823],[84.969,19.854],[84.936,19.875],[84.945,19.9],[85.026,19.901],[85.1,19.931],[85.124,19.933],[85.164,19.903],[85.211,19.912],[85.244,19.906],[85.304,19.927],[85.328,19.925],[85.36,19.957],[85.383,19.952],[85.384,19.94],[85.418,19.924],[85.423,19.94],[85.435,19.939],[85.455,19.971],[85.45,19.984],[85.44,19.991],[85.438,19.997],[85.415,19.995],[85.436,20.028],[85.414,20.025],[85.415,20.033],[85.397,20.037],[85.38,20.071],[85.384,20.092],[85.4,20.089],[85.416,20.127],[85.407,20.137],[85.389,20.136],[85.386,20.156],[85.356,20.144],[85.37,20.176],[85.356,20.19],[85.341,20.171],[85.331,20.182],[85.313,20.17],[85.312,20.155],[85.271,20.149],[85.249,20.131],[85.247,20.118],[85.231,20.119],[85.213,20.131],[85.203,20.155],[85.214,20.171],[85.202,20.174],[85.199,20.187],[85.219,20.22],[85.229,20.223],[85.239,20.208],[85.255,20.213],[85.255,20.226],[85.323,20.229],[85.329,20.279],[85.355,20.273],[85.381,20.287],[85.395,20.279],[85.397,20.258],[85.406,20.257],[85.42,20.274],[85.451,20.264],[85.46,20.297],[85.51,20.29],[85.525,20.305],[85.549,20.301],[85.551,20.313],[85.564,20.299],[85.624,20.293],[85.643,20.325],[85.664,20.332],[85.677,20.325],[85.718,20.405],[85.759,20.407],[85.768,20.416],[85.772,20.404],[85.786,20.411],[85.778,20.421],[85.785,20.434],[85.792,20.428],[85.802,20.435]],[[85.44,19.995],[85.441,19.993],[85.442,19.995],[85.44,19.995]],[[85.333,20.257],[85.329,20.247],[85.337,20.246],[85.341,20.255],[85.333,20.257]]]}},{"type":"Feature","properties":{"d":"Koraput"},"geometry":{"type":"MultiPolygon","coordinates":[[[[82.575,19.211],[82.579,19.195],[82.589,19.203],[82.59,19.192],[82.615,19.182],[82.616,19.158],[82.627,19.151],[82.624,19.16],[82.634,19.162],[82.638,19.149],[82.637,19.176],[82.654,19.189],[82.669,19.184],[82.68,19.197],[82.685,19.186],[82.702,19.191],[82.725,19.174],[82.724,19.161],[82.741,19.159],[82.751,19.174],[82.763,19.165],[82.788,19.173],[82.792,19.155],[82.803,19.151],[82.818,19.17],[82.822,19.148],[82.833,19.19],[82.843,19.201],[82.854,19.193],[82.861,19.207],[82.878,19.183],[82.899,19.173],[82.902,19.155],[82.92,19.162],[82.949,19.154],[82.979,19.173],[82.981,19.139],[83.006,19.121],[83.01,19.096],[83.029,19.087],[83.018,19.067],[83.065,19.044],[83.074,19.082],[83.098,19.109],[83.107,19.113],[83.116,19.094],[83.126,19.092],[83.135,19.136],[83.162,19.122],[83.176,19.146],[83.201,19.147],[83.198,19.169],[83.22,19.161],[83.227,19.173],[83.243,19.17],[83.256,19.164],[83.243,19.149],[83.243,19.129],[83.225,19.123],[83.22,19.138],[83.209,19.137],[83.18,19.099],[83.19,19.096],[83.185,19.081],[83.196,19.076],[83.186,19.015],[83.196,18.991],[83.185,18.961],[83.201,18.96],[83.22,18.984],[83.237,18.99],[83.234,19.026],[83.269,19.052],[83.26,19.069],[83.279,19.121],[83.286,19.136],[83.301,19.137],[83.285,19.127],[83.286,19.115],[83.297,19.123],[83.302,19.114],[83.318,19.114],[83.325,19.101],[83.34,19.105],[83.34,19.061],[83.362,19.045],[83.338,18.998],[83.311,18.999],[83.319,18.973],[83.334,18.969],[83.339,18.952],[83.325,18.933],[83.349,18.926],[83.351,18.967],[83.367,18.963],[83.371,18.943],[83.387,18.933],[83.373,18.926],[83.37,18.942],[83.353,18.943],[83.36,18.915],[83.392,18.907],[83.379,18.897],[83.418,18.868],[83.404,18.862],[83.406,18.842],[83.381,18.831],[83.368,18.844],[83.328,18.818],[83.329,18.806],[83.308,18.809],[83.284,18.798],[83.271,18.764],[83.225,18.775],[83.228,18.756],[83.214,18.729],[83.207,18.751],[83.193,18.753],[83.178,18.771],[83.154,18.766],[83.138,18.785],[83.115,18.768],[83.122,18.758],[83.073,18.705],[83.058,18.665],[83.013,18.646],[83.019,18.635],[83.0,18.62],[83.0,18.608],[83.014,18.606],[83.008,18.613],[83.022,18.63],[83.04,18.628],[83.013,18.595],[83.023,18.59],[83.053,18.601],[83.053,18.588],[83.03,18.574],[83.045,18.545],[83.081,18.555],[83.095,18.547],[83.055,18.485],[83.021,18.456],[83.038,18.446],[83.043,18.424],[83.06,18.437],[83.067,18.43],[83.057,18.419],[83.077,18.404],[83.055,18.38],[83.021,18.392],[82.997,18.386],[82.97,18.36],[82.96,18.366],[82.94,18.361],[82.922,18.375],[82.913,18.368],[82.894,18.381],[82.895,18.424],[82.852,18.42],[82.823,18.448],[82.805,18.45],[82.782,18.43],[82.787,18.411],[82.8,18.407],[82.794,18.385],[82.783,18.382],[82.791,18.363],[82.775,18.34],[82.668,18.298],[82.643,18.302],[82.652,18.281],[82.642,18.269],[82.649,18.248],[82.638,18.237],[82.588,18.276],[82.599,18.304],[82.581,18.315],[82.595,18.329],[82.609,18.327],[82.602,18.352],[82.621,18.359],[82.607,18.365],[82.606,18.381],[82.595,18.389],[82.563,18.399],[82.555,18.393],[82.535,18.406],[82.547,18.413],[82.542,18.422],[82.562,18.447],[82.543,18.458],[82.54,18.444],[82.519,18.466],[82.534,18.478],[82.526,18.496],[82.532,18.511],[82.504,18.514],[82.487,18.528],[82.482,18.541],[82.493,18.543],[82.482,18.549],[82.414,18.473],[82.385,18.502],[82.384,18.522],[82.403,18.526],[82.415,18.563],[82.386,18.584],[82.386,18.592],[82.408,18.6],[82.396,18.622],[82.376,18.617],[82.364,18.625],[82.313,18.576],[82.29,18.579],[82.294,18.587],[82.286,18.584],[82.278,18.599],[82.289,18.614],[82.267,18.616],[82.264,18.597],[82.231,18.625],[82.223,18.672],[82.188,18.651],[82.183,18.638],[82.171,18.639],[82.16,18.67],[82.146,18.667],[82.133,18.679],[82.145,18.694],[82.141,18.705],[82.126,18.706],[82.128,18.724],[82.093,18.737],[82.089,18.76],[82.133,18.766],[82.134,18.781],[82.16,18.788],[82.165,18.8],[82.157,18.806],[82.171,18.839],[82.161,18.88],[82.176,18.887],[82.176,18.902],[82.218,18.922],[82.246,18.919],[82.23,19.027],[82.201,19.067],[82.219,19.095],[82.205,19.097],[82.206,19.116],[82.236,19.122],[82.23,19.143],[82.26,19.142],[82.284,19.158],[82.289,19.151],[82.302,19.174],[82.317,19.18],[82.328,19.177],[82.33,19.166],[82.346,19.17],[82.356,19.186],[82.401,19.165],[82.411,19.169],[82.412,19.186],[82.443,19.171],[82.462,19.184],[82.489,19.181],[82.517,19.202],[82.55,19.195],[82.55,19.206],[82.569,19.199],[82.575,19.211]]],[[[83.198,18.992],[83.203,18.999],[83.202,18.991],[83.198,18.992]]],[[[83.196,19.018],[83.189,19.018],[83.194,19.022],[83.196,19.018]]],[[[83.133,18.697],[83.132,18.696],[83.132,18.696],[83.133,18.697]]],[[[83.133,18.663],[83.131,18.662],[83.132,18.664],[83.133,18.663]]],[[[83.119,18.694],[83.114,18.695],[83.119,18.698],[83.119,18.694]]],[[[83.117,18.685],[83.113,18.685],[83.116,18.687],[83.117,18.685]]],[[[83.101,18.689],[83.108,18.687],[83.108,18.686],[83.101,18.689]]],[[[83.097,18.683],[83.105,18.678],[83.096,18.682],[83.097,18.683]]],[[[83.104,18.695],[83.099,18.693],[83.099,18.7],[83.104,18.695]]],[[[83.09,18.659],[83.092,18.653],[83.087,18.657],[83.09,18.659]]],[[[83.087,18.673],[83.089,18.679],[83.091,18.673],[83.087,18.673]]],[[[83.088,18.689],[83.081,18.691],[83.082,18.695],[83.085,18.696],[83.088,18.689]]],[[[83.086,18.641],[83.084,18.64],[83.084,18.642],[83.086,18.641]]],[[[83.082,18.641],[83.081,18.639],[83.081,18.641],[83.082,18.641]]],[[[83.079,18.632],[83.082,18.634],[83.082,18.631],[83.079,18.632]]],[[[83.082,18.643],[83.08,18.643],[83.081,18.645],[83.082,18.643]]],[[[83.08,18.651],[83.075,18.649],[83.075,18.652],[83.08,18.651]]],[[[83.077,18.623],[83.077,18.605],[83.061,18.605],[83.077,18.623]]],[[[83.076,18.678],[83.072,18.673],[83.073,18.68],[83.076,18.678]]],[[[83.064,18.662],[83.059,18.654],[83.05,18.65],[83.064,18.662]]],[[[83.048,18.635],[83.05,18.631],[83.044,18.632],[83.048,18.635]]],[[[83.033,18.652],[83.048,18.646],[83.024,18.645],[83.033,18.652]]],[[[83.046,18.607],[83.042,18.604],[83.044,18.609],[83.046,18.607]]],[[[83.034,18.614],[83.041,18.61],[83.038,18.609],[83.034,18.614]]]]}},{"type":"Feature","properties":{"d":"Malkanagiri"},"geometry":{"type":"Polygon","coordinates":[[[82.096,18.736],[82.128,18.723],[82.126,18.706],[82.139,18.708],[82.145,18.695],[82.133,18.679],[82.146,18.667],[82.16,18.67],[82.171,18.639],[82.183,18.638],[82.188,18.651],[82.223,18.672],[82.231,18.625],[82.264,18.597],[82.267,18.616],[82.289,18.614],[82.278,18.599],[82.286,18.584],[82.294,18.587],[82.29,18.579],[82.313,18.576],[82.364,18.625],[82.378,18.617],[82.392,18.625],[82.408,18.602],[82.386,18.592],[82.415,18.563],[82.403,18.526],[82.39,18.529],[82.384,18.519],[82.385,18.502],[82.414,18.473],[82.364,18.422],[82.382,18.404],[82.386,18.367],[82.35,18.329],[82.338,18.328],[82.353,18.316],[82.389,18.329],[82.392,18.298],[82.376,18.281],[82.345,18.28],[82.332,18.251],[82.337,18.224],[82.311,18.204],[82.32,18.2],[82.315,18.185],[82.353,18.172],[82.372,18.149],[82.364,18.135],[82.343,18.149],[82.339,18.143],[82.336,18.105],[82.35,18.087],[82.341,18.055],[82.323,18.06],[82.321,18.044],[82.309,18.044],[82.31,18.053],[82.299,18.056],[82.305,18.068],[82.282,18.064],[82.262,18.042],[82.274,18.021],[82.269,18.001],[82.248,17.997],[82.224,18.001],[82.206,18.019],[82.187,18.015],[82.169,18.052],[82.137,18.044],[82.134,18.06],[82.102,18.061],[82.077,18.074],[82.06,18.054],[82.033,18.069],[82.008,18.057],[82.01,18.031],[81.994,18.028],[81.963,17.999],[81.919,17.991],[81.867,17.962],[81.812,17.952],[81.79,17.921],[81.725,17.879],[81.708,17.873],[81.7,17.901],[81.687,17.886],[81.671,17.887],[81.642,17.841],[81.617,17.823],[81.576,17.837],[81.564,17.826],[81.492,17.812],[81.475,17.838],[81.445,17.825],[81.433,17.831],[81.416,17.814],[81.404,17.82],[81.392,17.815],[81.389,17.828],[81.403,17.851],[81.394,17.868],[81.399,17.89],[81.408,17.895],[81.437,17.881],[81.447,17.887],[81.449,17.931],[81.483,17.976],[81.48,18.054],[81.514,18.101],[81.512,18.136],[81.526,18.162],[81.507,18.188],[81.53,18.239],[81.53,18.265],[81.564,18.275],[81.598,18.309],[81.662,18.322],[81.65,18.338],[81.658,18.347],[81.75,18.353],[81.769,18.418],[81.857,18.492],[81.87,18.526],[81.908,18.538],[81.902,18.549],[81.914,18.574],[81.935,18.563],[81.964,18.591],[81.928,18.619],[81.894,18.629],[81.894,18.657],[81.901,18.661],[81.922,18.643],[81.948,18.643],[81.968,18.675],[81.961,18.689],[81.97,18.698],[82.031,18.723],[82.062,18.719],[82.068,18.726],[82.085,18.718],[82.096,18.736]]]}},{"type":"Feature","properties":{"d":"Mayurbhanj"},"geometry":{"type":"MultiPolygon","coordinates":[[[[86.067,22.557],[86.118,22.487],[86.207,22.474],[86.227,22.453],[86.269,22.443],[86.281,22.448],[86.328,22.377],[86.35,22.364],[86.358,22.347],[86.409,22.321],[86.435,22.317],[86.498,22.348],[86.507,22.329],[86.528,22.323],[86.523,22.314],[86.533,22.3],[86.543,22.307],[86.555,22.298],[86.582,22.301],[86.594,22.278],[86.611,22.283],[86.627,22.27],[86.638,22.272],[86.659,22.254],[86.654,22.238],[86.672,22.245],[86.683,22.225],[86.724,22.219],[86.72,22.148],[86.789,22.157],[86.801,22.151],[86.806,22.12],[86.825,22.119],[86.833,22.099],[86.85,22.104],[86.965,22.086],[86.991,22.055],[87.027,22.037],[87.03,21.985],[87.0,21.914],[87.024,21.892],[87.026,21.876],[87.098,21.867],[87.122,21.842],[87.178,21.814],[87.184,21.791],[87.172,21.812],[87.172,21.792],[87.16,21.787],[87.163,21.773],[87.145,21.764],[87.128,21.778],[87.121,21.772],[87.117,21.789],[87.102,21.785],[87.102,21.772],[87.122,21.754],[87.095,21.749],[87.096,21.734],[87.085,21.74],[87.094,21.732],[87.093,21.726],[87.092,21.729],[87.088,21.73],[87.087,21.717],[87.082,21.722],[87.069,21.707],[87.046,21.714],[87.046,21.74],[87.025,21.743],[87.038,21.72],[87.036,21.696],[87.052,21.682],[87.031,21.674],[87.031,21.661],[87.012,21.677],[86.989,21.671],[86.989,21.653],[87.013,21.648],[87.004,21.626],[86.997,21.623],[86.996,21.635],[86.987,21.629],[87.007,21.6],[86.96,21.581],[86.963,21.593],[86.955,21.596],[86.95,21.58],[86.957,21.573],[86.92,21.592],[86.909,21.581],[86.912,21.592],[86.875,21.638],[86.874,21.623],[86.886,21.612],[86.864,21.59],[86.854,21.603],[86.844,21.599],[86.83,21.609],[86.799,21.608],[86.795,21.597],[86.74,21.606],[86.694,21.585],[86.683,21.596],[86.664,21.578],[86.648,21.581],[86.639,21.53],[86.626,21.534],[86.611,21.518],[86.582,21.523],[86.529,21.426],[86.485,21.378],[86.436,21.352],[86.433,21.34],[86.404,21.32],[86.359,21.305],[86.356,21.318],[86.306,21.345],[86.281,21.378],[86.264,21.383],[86.266,21.364],[86.224,21.324],[86.206,21.281],[86.185,21.272],[86.156,21.293],[86.135,21.282],[86.135,21.265],[86.114,21.274],[86.106,21.305],[86.089,21.314],[86.105,21.326],[86.105,21.352],[86.124,21.36],[86.12,21.371],[86.136,21.401],[86.161,21.423],[86.129,21.472],[86.007,21.533],[86.015,21.561],[86.046,21.578],[86.079,21.631],[86.072,21.664],[86.082,21.692],[86.055,21.696],[86.049,21.719],[86.036,21.694],[86.024,21.697],[86.027,21.725],[86.013,21.752],[85.97,21.738],[85.937,21.764],[85.901,21.767],[85.872,21.796],[85.839,21.811],[85.825,21.802],[85.809,21.812],[85.805,21.887],[85.788,21.903],[85.794,21.951],[85.765,21.974],[85.747,21.977],[85.737,21.994],[85.706,21.985],[85.697,21.993],[85.702,22.005],[85.669,22.015],[85.662,22.034],[85.677,22.057],[85.733,22.066],[85.807,22.117],[85.821,22.107],[85.813,22.095],[85.832,22.094],[85.836,22.081],[85.817,22.074],[85.793,22.082],[85.775,22.057],[85.781,22.032],[85.758,22.012],[85.763,21.996],[85.783,21.985],[85.817,21.986],[85.824,21.976],[85.898,21.984],[85.909,21.97],[85.916,22.008],[85.93,22.023],[85.943,22.021],[86.006,22.115],[85.996,22.132],[86.031,22.191],[85.974,22.247],[85.99,22.255],[85.988,22.267],[86.01,22.293],[86.048,22.312],[86.014,22.313],[86.026,22.335],[86.0,22.336],[86.028,22.387],[86.015,22.429],[86.0,22.426],[85.966,22.451],[85.969,22.461],[85.957,22.464],[85.962,22.485],[85.972,22.488],[85.973,22.505],[85.984,22.515],[86.029,22.527],[86.025,22.547],[86.045,22.568],[86.067,22.557]]],[[[86.922,21.589],[86.922,21.585],[86.921,21.586],[86.922,21.589]]],[[[86.902,21.598],[86.905,21.593],[86.903,21.593],[86.902,21.598]]]]}},{"type":"Feature","properties":{"d":"Nawarangpur"},"geometry":{"type":"Polygon","coordinates":[[[81.951,20.103],[81.995,20.054],[82.017,20.049],[82.021,20.024],[82.032,20.016],[82.07,20.057],[82.125,20.016],[82.172,20.005],[82.184,19.984],[82.211,19.986],[82.238,20.003],[82.269,19.975],[82.303,19.89],[82.344,19.835],[82.365,19.851],[82.361,19.863],[82.375,19.86],[82.395,19.888],[82.446,19.91],[82.464,19.901],[82.5,19.903],[82.504,19.891],[82.518,19.891],[82.53,19.878],[82.534,19.887],[82.548,19.876],[82.555,19.881],[82.604,19.866],[82.575,19.833],[82.576,19.808],[82.587,19.803],[82.581,19.784],[82.595,19.776],[82.602,19.747],[82.562,19.726],[82.573,19.714],[82.566,19.69],[82.575,19.679],[82.556,19.646],[82.524,19.632],[82.547,19.612],[82.528,19.584],[82.558,19.582],[82.568,19.566],[82.566,19.545],[82.616,19.539],[82.607,19.521],[82.647,19.508],[82.633,19.482],[82.649,19.478],[82.65,19.46],[82.66,19.457],[82.673,19.435],[82.68,19.439],[82.696,19.418],[82.717,19.411],[82.707,19.388],[82.718,19.37],[82.714,19.356],[82.725,19.354],[82.726,19.345],[82.74,19.349],[82.755,19.327],[82.779,19.345],[82.798,19.329],[82.847,19.324],[82.842,19.317],[82.853,19.308],[82.841,19.308],[82.824,19.256],[82.799,19.236],[82.836,19.236],[82.856,19.206],[82.854,19.193],[82.843,19.201],[82.833,19.19],[82.825,19.149],[82.816,19.155],[82.818,19.17],[82.803,19.151],[82.792,19.155],[82.788,19.173],[82.763,19.165],[82.751,19.174],[82.741,19.159],[82.724,19.161],[82.725,19.174],[82.702,19.191],[82.685,19.186],[82.68,19.197],[82.669,19.184],[82.654,19.189],[82.637,19.176],[82.641,19.151],[82.631,19.162],[82.626,19.151],[82.615,19.159],[82.615,19.182],[82.59,19.192],[82.589,19.203],[82.579,19.195],[82.573,19.211],[82.569,19.199],[82.55,19.206],[82.55,19.195],[82.517,19.202],[82.489,19.181],[82.462,19.184],[82.443,19.171],[82.412,19.186],[82.411,19.169],[82.401,19.165],[82.356,19.186],[82.346,19.17],[82.33,19.166],[82.328,19.177],[82.317,19.18],[82.302,19.174],[82.289,19.151],[82.284,19.158],[82.26,19.142],[82.231,19.145],[82.226,19.136],[82.236,19.122],[82.22,19.115],[82.183,19.132],[82.171,19.12],[82.166,19.134],[82.176,19.139],[82.17,19.146],[82.182,19.152],[82.17,19.16],[82.178,19.155],[82.186,19.166],[82.176,19.172],[82.181,19.192],[82.161,19.202],[82.169,19.213],[82.158,19.227],[82.158,19.268],[82.181,19.324],[82.193,19.326],[82.178,19.344],[82.148,19.353],[82.147,19.365],[82.153,19.377],[82.178,19.378],[82.19,19.426],[82.173,19.437],[82.125,19.43],[82.102,19.467],[82.108,19.494],[82.097,19.499],[82.1,19.517],[82.075,19.524],[82.065,19.511],[82.028,19.508],[82.05,19.549],[82.039,19.597],[82.059,19.628],[82.045,19.704],[82.051,19.747],[82.064,19.759],[82.065,19.791],[82.009,19.805],[81.986,19.801],[81.965,19.837],[81.968,19.86],[81.87,19.903],[81.853,19.919],[81.857,19.948],[81.845,19.952],[81.876,20.052],[81.884,20.044],[81.896,20.048],[81.926,20.092],[81.951,20.103]]]}},{"type":"Feature","properties":{"d":"Nayagarh"},"geometry":{"type":"MultiPolygon","coordinates":[[[[84.789,20.581],[84.88,20.499],[84.955,20.486],[85.051,20.428],[85.115,20.407],[85.14,20.384],[85.203,20.379],[85.273,20.359],[85.367,20.366],[85.373,20.352],[85.357,20.345],[85.348,20.32],[85.355,20.302],[85.328,20.277],[85.323,20.229],[85.255,20.226],[85.255,20.213],[85.239,20.208],[85.229,20.223],[85.219,20.22],[85.199,20.187],[85.202,20.174],[85.214,20.171],[85.203,20.155],[85.213,20.131],[85.24,20.116],[85.27,20.148],[85.312,20.155],[85.311,20.167],[85.33,20.181],[85.341,20.171],[85.347,20.187],[85.362,20.187],[85.37,20.176],[85.356,20.144],[85.386,20.156],[85.389,20.136],[85.407,20.137],[85.416,20.127],[85.4,20.089],[85.384,20.092],[85.38,20.071],[85.397,20.037],[85.415,20.033],[85.414,20.025],[85.436,20.028],[85.415,19.995],[85.438,19.997],[85.44,19.991],[85.45,19.984],[85.454,19.973],[85.435,19.939],[85.423,19.94],[85.418,19.924],[85.384,19.94],[85.383,19.952],[85.36,19.957],[85.328,19.925],[85.304,19.927],[85.251,19.907],[85.21,19.912],[85.164,19.903],[85.123,19.934],[85.051,19.916],[85.026,19.901],[84.94,19.897],[84.906,19.909],[84.921,19.943],[84.9,19.993],[84.865,19.997],[84.857,20.031],[84.811,20.067],[84.798,20.09],[84.807,20.115],[84.822,20.121],[84.832,20.217],[84.765,20.246],[84.736,20.244],[84.696,20.281],[84.672,20.274],[84.649,20.204],[84.634,20.19],[84.598,20.177],[84.585,20.187],[84.542,20.252],[84.553,20.284],[84.543,20.323],[84.515,20.319],[84.511,20.337],[84.486,20.336],[84.498,20.361],[84.518,20.369],[84.514,20.402],[84.543,20.419],[84.563,20.411],[84.59,20.424],[84.604,20.42],[84.618,20.435],[84.646,20.424],[84.681,20.433],[84.691,20.45],[84.68,20.46],[84.692,20.47],[84.697,20.498],[84.711,20.506],[84.712,20.524],[84.74,20.541],[84.766,20.532],[84.791,20.561],[84.789,20.581]]],[[[85.44,19.994],[85.442,19.995],[85.441,19.993],[85.44,19.994]]],[[[85.333,20.257],[85.341,20.255],[85.337,20.246],[85.329,20.247],[85.333,20.257]]]]}},{"type":"Feature","properties":{"d":"Nuapada"},"geometry":{"type":"Polygon","coordinates":[[[82.845,20.291],[82.861,20.27],[82.851,20.243],[82.861,20.231],[82.845,20.193],[82.812,20.185],[82.811,20.172],[82.823,20.165],[82.82,20.112],[82.812,20.1],[82.788,20.103],[82.755,20.054],[82.74,20.053],[82.748,20.042],[82.745,20.025],[82.728,20.023],[82.715,19.996],[82.643,20.007],[82.602,19.99],[82.551,20.017],[82.51,20.018],[82.479,20.038],[82.399,20.058],[82.398,20.124],[82.386,20.147],[82.421,20.205],[82.411,20.243],[82.422,20.248],[82.412,20.266],[82.438,20.294],[82.431,20.314],[82.4,20.342],[82.421,20.393],[82.417,20.408],[82.432,20.417],[82.438,20.434],[82.426,20.445],[82.427,20.469],[82.418,20.482],[82.409,20.463],[82.396,20.46],[82.39,20.518],[82.357,20.53],[82.332,20.562],[82.351,20.581],[82.347,20.602],[82.376,20.632],[82.369,20.649],[82.374,20.667],[82.355,20.693],[82.346,20.731],[82.353,20.736],[82.342,20.767],[82.345,20.865],[82.339,20.869],[82.351,20.89],[82.364,20.889],[82.364,20.871],[82.405,20.87],[82.42,20.831],[82.463,20.828],[82.466,20.844],[82.486,20.861],[82.488,20.909],[82.562,20.951],[82.569,20.97],[82.629,21.039],[82.611,21.074],[82.636,21.091],[82.665,21.072],[82.692,21.023],[82.687,20.974],[82.699,20.937],[82.694,20.903],[82.682,20.886],[82.684,20.807],[82.698,20.761],[82.685,20.733],[82.7,20.729],[82.693,20.685],[82.719,20.679],[82.731,20.654],[82.727,20.64],[82.742,20.631],[82.729,20.586],[82.71,20.571],[82.705,20.504],[82.684,20.454],[82.696,20.45],[82.696,20.426],[82.73,20.383],[82.715,20.357],[82.745,20.362],[82.772,20.354],[82.803,20.385],[82.815,20.384],[82.812,20.362],[82.79,20.346],[82.788,20.325],[82.812,20.328],[82.814,20.358],[82.834,20.336],[82.85,20.341],[82.845,20.291]],[[82.845,20.291],[82.835,20.321],[82.819,20.321],[82.813,20.289],[82.828,20.28],[82.845,20.291]]]}},{"type":"Feature","properties":{"d":"Puri"},"geometry":{"type":"Polygon","coordinates":[[[85.854,20.202],[85.891,20.18],[85.888,20.17],[85.904,20.155],[85.873,20.126],[85.88,20.113],[85.897,20.112],[85.902,20.128],[85.93,20.112],[85.946,20.121],[85.953,20.113],[85.96,20.122],[85.994,20.108],[86.01,20.113],[86.021,20.101],[86.071,20.109],[86.089,20.091],[86.076,20.083],[86.078,20.07],[86.088,20.058],[86.11,20.067],[86.126,20.059],[86.118,20.048],[86.125,20.039],[86.2,20.054],[86.207,20.039],[86.212,20.044],[86.222,20.036],[86.23,20.044],[86.243,20.038],[86.257,20.053],[86.279,20.054],[86.27,20.041],[86.328,20.022],[86.34,19.987],[86.37,19.982],[86.376,19.962],[86.14,19.871],[85.92,19.823],[85.623,19.727],[85.573,19.694],[85.339,19.582],[85.173,19.468],[85.136,19.519],[85.174,19.559],[85.182,19.672],[85.209,19.679],[85.211,19.696],[85.199,19.706],[85.218,19.74],[85.249,19.744],[85.252,19.768],[85.286,19.782],[85.33,19.786],[85.36,19.823],[85.387,19.831],[85.439,19.883],[85.503,19.885],[85.5,19.87],[85.562,19.855],[85.568,19.917],[85.531,19.928],[85.534,19.939],[85.527,19.944],[85.52,19.93],[85.507,19.927],[85.519,19.941],[85.499,19.946],[85.511,19.952],[85.514,19.971],[85.529,19.978],[85.532,19.958],[85.547,19.956],[85.55,19.963],[85.551,19.954],[85.562,19.952],[85.567,19.972],[85.555,19.974],[85.569,19.982],[85.562,19.995],[85.566,20.004],[85.571,19.998],[85.572,20.026],[85.589,19.998],[85.615,20.02],[85.607,19.996],[85.614,19.993],[85.629,20.024],[85.613,20.038],[85.619,20.067],[85.644,20.083],[85.632,20.102],[85.649,20.097],[85.65,20.067],[85.678,20.07],[85.672,20.087],[85.688,20.093],[85.692,20.095],[85.693,20.099],[85.684,20.098],[85.675,20.125],[85.691,20.158],[85.702,20.144],[85.72,20.143],[85.715,20.136],[85.724,20.13],[85.729,20.15],[85.757,20.142],[85.762,20.168],[85.797,20.152],[85.806,20.161],[85.825,20.159],[85.836,20.191],[85.844,20.176],[85.854,20.177],[85.854,20.193],[85.837,20.195],[85.854,20.202]]]}},{"type":"Feature","properties":{"d":"Rayagada"},"geometry":{"type":"Polygon","coordinates":[[[83.45,19.974],[83.533,19.949],[83.559,19.929],[83.524,19.883],[83.528,19.854],[83.535,19.858],[83.54,19.846],[83.557,19.844],[83.573,19.828],[83.604,19.831],[83.622,19.778],[83.607,19.749],[83.626,19.746],[83.633,19.732],[83.644,19.698],[83.634,19.671],[83.645,19.659],[83.695,19.691],[83.722,19.672],[83.73,19.655],[83.742,19.655],[83.763,19.677],[83.766,19.716],[83.791,19.711],[83.805,19.719],[83.844,19.709],[83.854,19.685],[83.873,19.672],[83.93,19.679],[83.936,19.672],[83.924,19.664],[83.934,19.658],[83.94,19.635],[83.925,19.628],[83.935,19.592],[83.929,19.567],[83.948,19.563],[83.95,19.548],[83.98,19.532],[83.97,19.461],[83.941,19.418],[83.948,19.416],[83.947,19.397],[83.963,19.396],[83.97,19.382],[83.977,19.391],[84.012,19.38],[84.03,19.344],[84.016,19.304],[84.021,19.292],[84.001,19.257],[83.99,19.256],[83.995,19.241],[83.972,19.2],[83.989,19.187],[83.994,19.169],[83.985,19.164],[83.994,19.15],[84.031,19.135],[84.016,19.118],[84.014,19.099],[84.031,19.06],[83.984,19.072],[83.965,19.064],[83.964,19.045],[83.986,19.021],[83.956,18.999],[83.908,19.019],[83.891,18.99],[83.878,18.995],[83.853,18.984],[83.854,19.002],[83.844,19.012],[83.832,19.006],[83.815,19.033],[83.777,19.018],[83.781,19.008],[83.758,19.003],[83.747,18.987],[83.76,18.95],[83.768,18.955],[83.779,18.947],[83.788,18.91],[83.754,18.926],[83.733,18.987],[83.714,18.993],[83.71,19.003],[83.729,19.017],[83.701,19.024],[83.675,19.072],[83.663,19.072],[83.663,19.099],[83.647,19.118],[83.656,19.127],[83.637,19.131],[83.637,19.155],[83.625,19.163],[83.63,19.152],[83.599,19.129],[83.611,19.096],[83.585,19.086],[83.584,19.061],[83.564,19.058],[83.561,19.085],[83.548,19.079],[83.557,19.057],[83.542,19.042],[83.537,19.01],[83.501,19.021],[83.499,19.036],[83.517,19.033],[83.511,19.07],[83.497,19.067],[83.481,19.078],[83.484,19.093],[83.468,19.093],[83.478,19.079],[83.466,19.08],[83.462,19.064],[83.483,19.034],[83.478,19.008],[83.449,19.01],[83.455,18.991],[83.468,18.991],[83.463,18.955],[83.414,18.99],[83.415,19.003],[83.397,19.01],[83.372,19.002],[83.367,19.016],[83.342,19.018],[83.362,19.045],[83.34,19.061],[83.34,19.105],[83.325,19.101],[83.318,19.114],[83.302,19.114],[83.297,19.123],[83.287,19.115],[83.285,19.127],[83.302,19.137],[83.295,19.138],[83.286,19.136],[83.26,19.069],[83.269,19.052],[83.234,19.026],[83.237,18.99],[83.22,18.984],[83.201,18.96],[83.185,18.961],[83.196,18.991],[83.186,19.015],[83.196,19.076],[83.185,19.081],[83.19,19.096],[83.18,19.099],[83.209,19.137],[83.22,19.138],[83.225,19.123],[83.243,19.129],[83.243,19.149],[83.256,19.164],[83.227,19.173],[83.22,19.161],[83.198,19.169],[83.201,19.147],[83.176,19.146],[83.162,19.122],[83.135,19.136],[83.126,19.092],[83.116,19.094],[83.107,19.113],[83.098,19.109],[83.074,19.082],[83.065,19.044],[83.018,19.067],[83.029,19.087],[83.01,19.096],[83.006,19.121],[82.981,19.139],[82.981,19.172],[82.949,19.154],[82.92,19.162],[82.902,19.155],[82.899,19.173],[82.87,19.194],[82.891,19.203],[82.894,19.211],[82.884,19.218],[82.907,19.232],[82.888,19.256],[82.906,19.269],[82.903,19.284],[82.917,19.302],[82.927,19.289],[82.938,19.323],[82.963,19.347],[82.945,19.364],[82.953,19.392],[82.938,19.403],[82.936,19.425],[82.921,19.439],[82.934,19.451],[82.959,19.438],[82.99,19.452],[82.999,19.468],[82.988,19.473],[82.991,19.483],[82.998,19.496],[83.024,19.508],[83.027,19.533],[83.043,19.556],[83.07,19.562],[83.09,19.538],[83.106,19.54],[83.102,19.526],[83.11,19.527],[83.108,19.508],[83.119,19.499],[83.139,19.511],[83.16,19.481],[83.148,19.466],[83.169,19.427],[83.183,19.423],[83.184,19.463],[83.192,19.465],[83.209,19.443],[83.205,19.474],[83.228,19.506],[83.246,19.505],[83.257,19.53],[83.249,19.542],[83.263,19.548],[83.265,19.559],[83.253,19.571],[83.269,19.578],[83.267,19.602],[83.288,19.589],[83.288,19.597],[83.318,19.592],[83.358,19.607],[83.374,19.598],[83.37,19.62],[83.383,19.637],[83.377,19.646],[83.384,19.668],[83.417,19.685],[83.454,19.738],[83.451,19.785],[83.459,19.796],[83.437,19.802],[83.432,19.826],[83.439,19.832],[83.421,19.85],[83.431,19.871],[83.405,19.919],[83.418,19.934],[83.442,19.934],[83.45,19.974]],[[83.203,18.999],[83.198,18.992],[83.202,18.991],[83.203,18.999]],[[83.189,19.018],[83.196,19.018],[83.194,19.022],[83.189,19.018]]]}},{"type":"Feature","properties":{"d":"Sambalpur"},"geometry":{"type":"Polygon","coordinates":[[[84.475,22.19],[84.496,22.138],[84.495,22.093],[84.514,22.085],[84.51,22.057],[84.528,22.046],[84.508,22.02],[84.5,21.973],[84.506,21.96],[84.515,21.975],[84.528,21.971],[84.517,21.95],[84.525,21.927],[84.494,21.92],[84.491,21.911],[84.527,21.89],[84.525,21.872],[84.539,21.862],[84.527,21.851],[84.526,21.813],[84.566,21.788],[84.566,21.777],[84.56,21.776],[84.558,21.77],[84.555,21.77],[84.554,21.77],[84.554,21.768],[84.589,21.758],[84.612,21.766],[84.627,21.762],[84.639,21.767],[84.657,21.764],[84.646,21.744],[84.631,21.74],[84.638,21.724],[84.629,21.698],[84.567,21.703],[84.541,21.679],[84.501,21.684],[84.502,21.667],[84.488,21.662],[84.485,21.64],[84.501,21.624],[84.525,21.625],[84.531,21.606],[84.569,21.581],[84.542,21.583],[84.534,21.568],[84.51,21.582],[84.509,21.572],[84.488,21.578],[84.503,21.549],[84.492,21.531],[84.471,21.539],[84.458,21.517],[84.44,21.518],[84.443,21.493],[84.408,21.477],[84.414,21.455],[84.393,21.435],[84.394,21.394],[84.402,21.38],[84.449,21.394],[84.489,21.392],[84.486,21.37],[84.5,21.365],[84.499,21.375],[84.512,21.373],[84.518,21.382],[84.541,21.378],[84.565,21.324],[84.564,21.25],[84.603,21.261],[84.609,21.274],[84.629,21.276],[84.632,21.291],[84.65,21.303],[84.668,21.305],[84.659,21.314],[84.692,21.322],[84.709,21.32],[84.758,21.279],[84.752,21.259],[84.768,21.253],[84.753,21.227],[84.744,21.234],[84.719,21.223],[84.716,21.209],[84.741,21.189],[84.74,21.169],[84.732,21.169],[84.724,21.147],[84.68,21.147],[84.667,21.102],[84.68,21.06],[84.644,21.083],[84.625,21.083],[84.584,21.061],[84.551,21.069],[84.532,21.087],[84.503,21.088],[84.467,21.072],[84.439,21.033],[84.43,21.039],[84.408,21.03],[84.434,21.015],[84.413,21.002],[84.405,20.976],[84.379,20.966],[84.372,20.954],[84.357,20.96],[84.353,20.952],[84.329,20.952],[84.311,20.932],[84.297,20.935],[84.278,20.922],[84.238,20.923],[84.192,20.976],[84.155,20.975],[84.156,20.995],[84.14,21.012],[84.142,21.033],[84.017,21.052],[83.987,21.079],[83.992,21.1],[83.984,21.131],[83.89,21.183],[83.905,21.237],[83.888,21.276],[83.889,21.295],[83.876,21.293],[83.87,21.311],[83.879,21.389],[83.846,21.414],[83.849,21.421],[83.879,21.426],[83.885,21.439],[83.846,21.527],[83.815,21.536],[83.799,21.564],[83.813,21.596],[83.874,21.577],[83.975,21.576],[83.977,21.66],[83.968,21.705],[83.942,21.73],[83.968,21.765],[83.989,21.751],[84.01,21.78],[84.034,21.758],[84.054,21.776],[84.085,21.773],[84.112,21.79],[84.145,21.775],[84.148,21.731],[84.185,21.721],[84.195,21.735],[84.211,21.738],[84.208,21.746],[84.238,21.748],[84.252,21.766],[84.284,21.763],[84.291,21.792],[84.327,21.838],[84.326,21.866],[84.372,21.954],[84.37,21.976],[84.389,21.993],[84.389,22.024],[84.355,22.038],[84.316,22.039],[84.294,22.034],[84.284,22.015],[84.268,22.016],[84.267,22.108],[84.278,22.11],[84.278,22.124],[84.298,22.118],[84.34,22.13],[84.364,22.15],[84.383,22.147],[84.423,22.175],[84.475,22.19]]]}},{"type":"Feature","properties":{"d":"Sonepur"},"geometry":{"type":"Polygon","coordinates":[[[83.892,21.182],[83.984,21.131],[83.992,21.1],[83.987,21.079],[84.017,21.052],[84.143,21.033],[84.14,21.012],[84.156,20.995],[84.155,20.975],[84.192,20.976],[84.237,20.923],[84.278,20.922],[84.262,20.9],[84.267,20.89],[84.264,20.882],[84.233,20.895],[84.195,20.89],[84.118,20.842],[84.043,20.821],[84.012,20.841],[83.97,20.837],[83.926,20.847],[83.925,20.836],[83.897,20.819],[83.866,20.816],[83.841,20.825],[83.788,20.803],[83.761,20.778],[83.759,20.72],[83.743,20.704],[83.716,20.64],[83.732,20.623],[83.729,20.607],[83.684,20.559],[83.645,20.537],[83.602,20.527],[83.595,20.543],[83.605,20.57],[83.596,20.579],[83.595,20.606],[83.621,20.63],[83.628,20.661],[83.64,20.67],[83.634,20.678],[83.665,20.704],[83.679,20.743],[83.653,20.745],[83.656,20.771],[83.636,20.77],[83.635,20.797],[83.593,20.8],[83.595,20.821],[83.619,20.817],[83.625,20.827],[83.57,20.845],[83.577,20.875],[83.618,20.901],[83.609,20.931],[83.639,20.983],[83.57,20.974],[83.53,20.985],[83.505,20.981],[83.49,20.995],[83.467,20.996],[83.446,21.016],[83.454,21.053],[83.463,21.062],[83.497,21.041],[83.492,21.062],[83.542,21.073],[83.595,21.108],[83.605,21.129],[83.714,21.12],[83.762,21.143],[83.768,21.155],[83.784,21.152],[83.799,21.114],[83.84,21.094],[83.892,21.182]]]}},{"type":"Feature","properties":{"d":"Sundargarh"},"geometry":{"type":"Polygon","coordinates":[[[83.998,22.53],[84.058,22.516],[84.074,22.506],[84.069,22.501],[84.113,22.476],[84.136,22.477],[84.141,22.426],[84.162,22.403],[84.198,22.377],[84.253,22.379],[84.27,22.354],[84.296,22.341],[84.37,22.355],[84.402,22.347],[84.428,22.353],[84.43,22.369],[84.449,22.384],[84.484,22.389],[84.48,22.412],[84.535,22.427],[84.548,22.421],[84.628,22.435],[84.668,22.418],[84.748,22.42],[84.759,22.447],[84.812,22.452],[84.818,22.437],[84.838,22.43],[84.882,22.447],[84.885,22.42],[84.916,22.426],[84.924,22.444],[84.957,22.459],[84.959,22.443],[85.037,22.473],[85.036,22.482],[85.076,22.48],[85.077,22.464],[85.06,22.449],[85.086,22.399],[85.077,22.356],[85.096,22.345],[85.089,22.321],[85.118,22.318],[85.117,22.294],[85.103,22.295],[85.071,22.274],[85.078,22.254],[85.049,22.195],[85.052,22.182],[85.029,22.163],[85.032,22.134],[85.024,22.118],[84.984,22.095],[84.985,22.085],[85.009,22.089],[85.024,22.11],[85.053,22.116],[85.099,22.106],[85.12,22.07],[85.156,22.079],[85.171,22.051],[85.168,22.07],[85.181,22.073],[85.186,22.059],[85.215,22.048],[85.222,22.018],[85.24,22.01],[85.231,21.997],[85.264,21.976],[85.272,21.961],[85.299,21.953],[85.314,21.959],[85.376,21.936],[85.364,21.858],[85.337,21.823],[85.309,21.82],[85.291,21.837],[85.243,21.805],[85.23,21.819],[85.222,21.816],[85.2,21.761],[85.213,21.74],[85.185,21.708],[85.193,21.689],[85.186,21.677],[85.191,21.66],[85.181,21.646],[85.195,21.64],[85.176,21.619],[85.164,21.623],[85.144,21.595],[85.105,21.594],[85.077,21.604],[85.05,21.59],[85.029,21.628],[85.026,21.672],[84.998,21.683],[84.975,21.672],[84.956,21.684],[84.952,21.662],[84.914,21.67],[84.901,21.659],[84.861,21.651],[84.855,21.661],[84.79,21.668],[84.782,21.649],[84.794,21.637],[84.756,21.625],[84.741,21.67],[84.748,21.681],[84.718,21.717],[84.692,21.709],[84.675,21.736],[84.678,21.749],[84.664,21.763],[84.612,21.766],[84.589,21.758],[84.554,21.768],[84.566,21.777],[84.566,21.788],[84.526,21.813],[84.527,21.851],[84.539,21.862],[84.525,21.872],[84.527,21.89],[84.491,21.911],[84.494,21.92],[84.525,21.927],[84.517,21.95],[84.528,21.971],[84.515,21.975],[84.506,21.96],[84.5,21.973],[84.508,22.02],[84.528,22.046],[84.51,22.057],[84.514,22.085],[84.495,22.093],[84.496,22.138],[84.476,22.19],[84.418,22.172],[84.383,22.147],[84.364,22.15],[84.34,22.13],[84.298,22.118],[84.278,22.124],[84.278,22.11],[84.266,22.102],[84.268,22.009],[84.23,21.975],[84.203,21.978],[84.168,22.002],[84.138,21.997],[84.118,22.013],[84.106,21.993],[84.089,21.999],[84.086,21.99],[84.07,21.989],[84.084,21.98],[84.088,21.963],[84.079,21.937],[84.061,21.934],[84.027,21.954],[84.004,21.923],[83.976,21.905],[83.957,21.942],[83.896,21.946],[83.877,21.923],[83.852,21.924],[83.865,21.911],[83.831,21.896],[83.829,21.877],[83.817,21.885],[83.812,21.855],[83.793,21.866],[83.738,21.817],[83.719,21.786],[83.689,21.79],[83.675,21.808],[83.636,21.819],[83.624,21.849],[83.609,21.846],[83.608,21.832],[83.581,21.829],[83.578,21.837],[83.591,21.851],[83.574,21.875],[83.577,21.888],[83.606,21.914],[83.591,21.929],[83.557,21.935],[83.562,21.948],[83.539,21.967],[83.543,21.994],[83.555,22.007],[83.537,22.027],[83.537,22.044],[83.548,22.059],[83.586,22.049],[83.606,22.067],[83.563,22.096],[83.563,22.104],[83.608,22.154],[83.628,22.204],[83.665,22.233],[83.705,22.247],[83.758,22.24],[83.798,22.289],[83.827,22.294],[83.822,22.313],[83.83,22.324],[83.853,22.328],[83.854,22.338],[83.898,22.338],[83.923,22.359],[83.944,22.355],[84.01,22.373],[84.013,22.397],[84.048,22.439],[84.048,22.47],[84.027,22.476],[84.018,22.491],[83.981,22.502],[83.975,22.512],[83.998,22.53]]]}}]}